{"type": "FeatureCollection", "features": [{"type": "Feature", "geometry": {"type": "Point", "coordinates": [72.94018409268106, 19.04561545434401]}, "properties": {"lst": 38.28, "ndvi": 0.291, "ndbi": -0.054, "risk": "Critical", "heat_zone": 3, "color": "#e74c3c", "city": "Mumbai"}}, {"type": "Feature", "geometry": {"type": "Point", "coordinates": [72.8601143666438, 19.03279678544668]}, "properties": {"lst": 36.31, "ndvi": 0.241, "ndbi": -0.046, "risk": "Critical", "heat_zone": 3, "color": "#e74c3c", "city": "Mumbai"}}, {"type": "Feature", "geometry": {"type": "Point", "coordinates": [72.93146776858148, 18.90245382317765]}, "properties": {"lst": 32.7, "ndvi": 0.57, "ndbi": -0.338, "risk": "Moderate", "heat_zone": 1, "color": "#f1c40f", "city": "Mumbai"}}, {"type": "Feature", "geometry": {"type": "Point", "coordinates": [72.95172101269809, 19.06480601052241]}, "properties": {"lst": 29.86, "ndvi": 0.099, "ndbi": -0.282, "risk": "Low", "heat_zone": 0, "color": "#2ecc71", "city": "Mumbai"}}, {"type": "Feature", "geometry": {"type": "Point", "coordinates": [72.92730989117659, 19.043942122967]}, "properties": {"lst": 35.63, "ndvi": 0.434, "ndbi": -0.066, "risk": "High", "heat_zone": 2, "color": "#e67e22", "city": "Mumbai"}}, {"type": "Feature", "geometry": {"type": "Point", "coordinates": [73.03144928912054, 19.05648010214601]}, "properties": {"lst": 39.71, "ndvi": 0.222, "ndbi": -0.01, "risk": "Critical", "heat_zone": 3, "color": "#e74c3c", "city": "Mumbai"}}, {"type": "Feature", "geometry": {"type": "Point", "coordinates": [72.94138434183522, 19.048252059550887]}, "properties": {"lst": 40.35, "ndvi": 0.203, "ndbi": 0.09, "risk": "Critical", "heat_zone": 3, "color": "#e74c3c", "city": "Mumbai"}}, {"type": "Feature", "geometry": {"type": "Point", "coordinates": [72.8941096625923, 19.04140099128137]}, "properties": {"lst": 36.73, "ndvi": 0.305, "ndbi": -0.106, "risk": "High", "heat_zone": 2, "color": "#e67e22", "city": "Mumbai"}}, {"type": "Feature", "geometry": {"type": "Point", "coordinates": [72.96066769166258, 19.034632767419293]}, "properties": {"lst": 29.56, "ndvi": 0.091, "ndbi": -0.269, "risk": "Low", "heat_zone": 0, "color": "#2ecc71", "city": "Mumbai"}}, {"type": "Feature", "geometry": {"type": "Point", "coordinates": [72.82689692507708, 18.996208297000734]}, "properties": {"lst": 39.1, "ndvi": 0.151, "ndbi": 0.134, "risk": "Critical", "heat_zone": 3, "color": "#e74c3c", "city": "Mumbai"}}, {"type": "Feature", "geometry": {"type": "Point", "coordinates": [73.00375551262084, 18.90222112833164]}, "properties": {"lst": 42.99, "ndvi": 0.169, "ndbi": 0.051, "risk": "Critical", "heat_zone": 3, "color": "#e74c3c", "city": "Mumbai"}}, {"type": "Feature", "geometry": {"type": "Point", "coordinates": [72.8234148899735, 18.98576477425225]}, "properties": {"lst": 35.6, "ndvi": 0.317, "ndbi": -0.004, "risk": "High", "heat_zone": 2, "color": "#e67e22", "city": "Mumbai"}}, {"type": "Feature", "geometry": {"type": "Point", "coordinates": [72.87645330131822, 19.037477556950478]}, "properties": {"lst": 39.51, "ndvi": 0.167, "ndbi": -0.03, "risk": "Critical", "heat_zone": 3, "color": "#e74c3c", "city": "Mumbai"}}, {"type": "Feature", "geometry": {"type": "Point", "coordinates": [73.03476874131391, 18.953314425725942]}, "properties": {"lst": 39.41, "ndvi": 0.129, "ndbi": 0.013, "risk": "Critical", "heat_zone": 3, "color": "#e74c3c", "city": "Mumbai"}}, {"type": "Feature", "geometry": {"type": "Point", "coordinates": [72.84782878583329, 19.076875623781]}, "properties": {"lst": 40.07, "ndvi": 0.331, "ndbi": -0.161, "risk": "High", "heat_zone": 2, "color": "#e67e22", "city": "Mumbai"}}, {"type": "Feature", "geometry": {"type": "Point", "coordinates": [73.03552025475226, 19.078623001484697]}, "properties": {"lst": 37.44, "ndvi": 0.254, "ndbi": -0.008, "risk": "Critical", "heat_zone": 3, "color": "#e74c3c", "city": "Mumbai"}}, {"type": "Feature", "geometry": {"type": "Point", "coordinates": [72.96308465952399, 18.917169563567505]}, "properties": {"lst": 32.28, "ndvi": 0.622, "ndbi": -0.334, "risk": "Moderate", "heat_zone": 1, "color": "#f1c40f", "city": "Mumbai"}}, {"type": "Feature", "geometry": {"type": "Point", "coordinates": [73.02128913555809, 19.108618803210074]}, "properties": {"lst": 39.72, "ndvi": 0.328, "ndbi": -0.055, "risk": "Critical", "heat_zone": 3, "color": "#e74c3c", "city": "Mumbai"}}, {"type": "Feature", "geometry": {"type": "Point", "coordinates": [73.00397168108863, 18.88415470683907]}, "properties": {"lst": 33.75, "ndvi": 0.563, "ndbi": -0.254, "risk": "Moderate", "heat_zone": 1, "color": "#f1c40f", "city": "Mumbai"}}, {"type": "Feature", "geometry": {"type": "Point", "coordinates": [73.04541382333257, 19.075058298867027]}, "properties": {"lst": 36.48, "ndvi": 0.257, "ndbi": 0.097, "risk": "Critical", "heat_zone": 3, "color": "#e74c3c", "city": "Mumbai"}}, {"type": "Feature", "geometry": {"type": "Point", "coordinates": [72.80321242317295, 19.13901237705668]}, "properties": {"lst": 30.12, "ndvi": -0.162, "ndbi": -0.327, "risk": "Low", "heat_zone": 0, "color": "#2ecc71", "city": "Mumbai"}}, {"type": "Feature", "geometry": {"type": "Point", "coordinates": [73.02590183616962, 19.02134062252508]}, "properties": {"lst": 37.22, "ndvi": 0.446, "ndbi": -0.095, "risk": "High", "heat_zone": 2, "color": "#e67e22", "city": "Mumbai"}}, {"type": "Feature", "geometry": {"type": "Point", "coordinates": [73.0361739311147, 19.051816605850146]}, "properties": {"lst": 39.42, "ndvi": 0.222, "ndbi": 0.016, "risk": "Critical", "heat_zone": 3, "color": "#e74c3c", "city": "Mumbai"}}, {"type": "Feature", "geometry": {"type": "Point", "coordinates": [73.04466440751332, 19.08109081989774]}, "properties": {"lst": 35.53, "ndvi": 0.631, "ndbi": -0.23, "risk": "Moderate", "heat_zone": 1, "color": "#f1c40f", "city": "Mumbai"}}, {"type": "Feature", "geometry": {"type": "Point", "coordinates": [72.90779726468843, 18.958733982184967]}, "properties": {"lst": 30.02, "ndvi": -0.278, "ndbi": -0.183, "risk": "Low", "heat_zone": 0, "color": "#2ecc71", "city": "Mumbai"}}, {"type": "Feature", "geometry": {"type": "Point", "coordinates": [72.80948347287645, 18.96386714738913]}, "properties": {"lst": 37.9, "ndvi": 0.115, "ndbi": 0.003, "risk": "Critical", "heat_zone": 3, "color": "#e74c3c", "city": "Mumbai"}}, {"type": "Feature", "geometry": {"type": "Point", "coordinates": [73.01379917352898, 19.07015755922487]}, "properties": {"lst": 39.74, "ndvi": 0.179, "ndbi": 0.02, "risk": "Critical", "heat_zone": 3, "color": "#e74c3c", "city": "Mumbai"}}, {"type": "Feature", "geometry": {"type": "Point", "coordinates": [73.01658494525314, 19.02910891354524]}, "properties": {"lst": 37.55, "ndvi": 0.394, "ndbi": -0.096, "risk": "High", "heat_zone": 2, "color": "#e67e22", "city": "Mumbai"}}, {"type": "Feature", "geometry": {"type": "Point", "coordinates": [73.02821709774244, 18.945053411054342]}, "properties": {"lst": 41.3, "ndvi": 0.146, "ndbi": 0.054, "risk": "Critical", "heat_zone": 3, "color": "#e74c3c", "city": "Mumbai"}}, {"type": "Feature", "geometry": {"type": "Point", "coordinates": [72.98942972141906, 19.12271481434488]}, "properties": {"lst": 37.63, "ndvi": 0.248, "ndbi": 0.008, "risk": "Critical", "heat_zone": 3, "color": "#e74c3c", "city": "Mumbai"}}, {"type": "Feature", "geometry": {"type": "Point", "coordinates": [72.97473483399106, 19.1198948076543]}, "properties": {"lst": 28.27, "ndvi": -0.093, "ndbi": -0.307, "risk": "Low", "heat_zone": 0, "color": "#2ecc71", "city": "Mumbai"}}, {"type": "Feature", "geometry": {"type": "Point", "coordinates": [73.00762767267592, 19.07474660495708]}, "properties": {"lst": 43.22, "ndvi": 0.122, "ndbi": 0.11, "risk": "Critical", "heat_zone": 3, "color": "#e74c3c", "city": "Mumbai"}}, {"type": "Feature", "geometry": {"type": "Point", "coordinates": [72.96018380912271, 18.88136615546332]}, "properties": {"lst": 37.09, "ndvi": 0.215, "ndbi": 0.019, "risk": "Critical", "heat_zone": 3, "color": "#e74c3c", "city": "Mumbai"}}, {"type": "Feature", "geometry": {"type": "Point", "coordinates": [72.88766732481072, 19.01278516324438]}, "properties": {"lst": 35.75, "ndvi": 0.508, "ndbi": -0.186, "risk": "High", "heat_zone": 2, "color": "#e67e22", "city": "Mumbai"}}, {"type": "Feature", "geometry": {"type": "Point", "coordinates": [72.83813529958736, 18.97857656563981]}, "properties": {"lst": 33.31, "ndvi": 0.59, "ndbi": -0.251, "risk": "Moderate", "heat_zone": 1, "color": "#f1c40f", "city": "Mumbai"}}, {"type": "Feature", "geometry": {"type": "Point", "coordinates": [72.92084520802298, 19.036032230233005]}, "properties": {"lst": 32.78, "ndvi": 0.493, "ndbi": -0.121, "risk": "High", "heat_zone": 2, "color": "#e67e22", "city": "Mumbai"}}, {"type": "Feature", "geometry": {"type": "Point", "coordinates": [72.90072945932681, 18.952819121690784]}, "properties": {"lst": 29.45, "ndvi": -0.093, "ndbi": -0.056, "risk": "Low", "heat_zone": 0, "color": "#2ecc71", "city": "Mumbai"}}, {"type": "Feature", "geometry": {"type": "Point", "coordinates": [72.86807218293484, 19.09599612083936]}, "properties": {"lst": 46.86, "ndvi": 0.082, "ndbi": 0.033, "risk": "Critical", "heat_zone": 3, "color": "#e74c3c", "city": "Mumbai"}}, {"type": "Feature", "geometry": {"type": "Point", "coordinates": [72.83740492363304, 18.992643652351468]}, "properties": {"lst": 37.81, "ndvi": 0.183, "ndbi": -0.005, "risk": "Critical", "heat_zone": 3, "color": "#e74c3c", "city": "Mumbai"}}, {"type": "Feature", "geometry": {"type": "Point", "coordinates": [73.02327339144081, 19.004458474243958]}, "properties": {"lst": 37.87, "ndvi": 0.369, "ndbi": -0.041, "risk": "High", "heat_zone": 2, "color": "#e67e22", "city": "Mumbai"}}, {"type": "Feature", "geometry": {"type": "Point", "coordinates": [72.99513571095679, 19.069104210842863]}, "properties": {"lst": 38.73, "ndvi": 0.268, "ndbi": -0.105, "risk": "Critical", "heat_zone": 3, "color": "#e74c3c", "city": "Mumbai"}}, {"type": "Feature", "geometry": {"type": "Point", "coordinates": [73.03759083096759, 19.125016345161885]}, "properties": {"lst": 34.56, "ndvi": 0.449, "ndbi": -0.062, "risk": "High", "heat_zone": 2, "color": "#e67e22", "city": "Mumbai"}}, {"type": "Feature", "geometry": {"type": "Point", "coordinates": [72.88243500913728, 19.0865191225952]}, "properties": {"lst": 43.06, "ndvi": 0.352, "ndbi": -0.057, "risk": "Critical", "heat_zone": 3, "color": "#e74c3c", "city": "Mumbai"}}, {"type": "Feature", "geometry": {"type": "Point", "coordinates": [73.01719062380361, 19.009528925456603]}, "properties": {"lst": 35.81, "ndvi": 0.211, "ndbi": 0.023, "risk": "Critical", "heat_zone": 3, "color": "#e74c3c", "city": "Mumbai"}}, {"type": "Feature", "geometry": {"type": "Point", "coordinates": [72.9671575521933, 19.135840293372883]}, "properties": {"lst": 30.74, "ndvi": 0.67, "ndbi": -0.373, "risk": "Moderate", "heat_zone": 1, "color": "#f1c40f", "city": "Mumbai"}}, {"type": "Feature", "geometry": {"type": "Point", "coordinates": [72.81760261844782, 18.991496080152128]}, "properties": {"lst": 38.66, "ndvi": 0.211, "ndbi": 0.128, "risk": "Critical", "heat_zone": 3, "color": "#e74c3c", "city": "Mumbai"}}, {"type": "Feature", "geometry": {"type": "Point", "coordinates": [72.97785005987616, 19.07812669575138]}, "properties": {"lst": 28.59, "ndvi": -0.201, "ndbi": -0.275, "risk": "Low", "heat_zone": 0, "color": "#2ecc71", "city": "Mumbai"}}, {"type": "Feature", "geometry": {"type": "Point", "coordinates": [72.88786269678197, 19.09032984336565]}, "properties": {"lst": 42.98, "ndvi": 0.454, "ndbi": -0.204, "risk": "High", "heat_zone": 2, "color": "#e67e22", "city": "Mumbai"}}, {"type": "Feature", "geometry": {"type": "Point", "coordinates": [72.96006434459711, 19.04978446748629]}, "properties": {"lst": 30.73, "ndvi": 0.503, "ndbi": -0.321, "risk": "Moderate", "heat_zone": 1, "color": "#f1c40f", "city": "Mumbai"}}, {"type": "Feature", "geometry": {"type": "Point", "coordinates": [72.99392621252773, 19.08446551109957]}, "properties": {"lst": 31.92, "ndvi": 0.214, "ndbi": -0.149, "risk": "High", "heat_zone": 2, "color": "#e67e22", "city": "Mumbai"}}, {"type": "Feature", "geometry": {"type": "Point", "coordinates": [72.974901946343, 19.04798769491805]}, "properties": {"lst": 28.71, "ndvi": -0.289, "ndbi": -0.292, "risk": "Low", "heat_zone": 0, "color": "#2ecc71", "city": "Mumbai"}}, {"type": "Feature", "geometry": {"type": "Point", "coordinates": [72.81588387258941, 18.91584739497412]}, "properties": {"lst": 29.44, "ndvi": -0.162, "ndbi": -0.293, "risk": "Low", "heat_zone": 0, "color": "#2ecc71", "city": "Mumbai"}}, {"type": "Feature", "geometry": {"type": "Point", "coordinates": [72.8351936093776, 18.965889649221914]}, "properties": {"lst": 41.01, "ndvi": 0.184, "ndbi": 0.059, "risk": "Critical", "heat_zone": 3, "color": "#e74c3c", "city": "Mumbai"}}, {"type": "Feature", "geometry": {"type": "Point", "coordinates": [73.04796605782327, 18.93196179325593]}, "properties": {"lst": 38.87, "ndvi": 0.343, "ndbi": -0.012, "risk": "Critical", "heat_zone": 3, "color": "#e74c3c", "city": "Mumbai"}}, {"type": "Feature", "geometry": {"type": "Point", "coordinates": [72.91479667556267, 19.01767493074187]}, "properties": {"lst": 30.85, "ndvi": 0.507, "ndbi": -0.143, "risk": "Moderate", "heat_zone": 1, "color": "#f1c40f", "city": "Mumbai"}}, {"type": "Feature", "geometry": {"type": "Point", "coordinates": [72.98512467485324, 18.954133228198323]}, "properties": {"lst": 33.31, "ndvi": 0.418, "ndbi": -0.213, "risk": "High", "heat_zone": 2, "color": "#e67e22", "city": "Mumbai"}}, {"type": "Feature", "geometry": {"type": "Point", "coordinates": [73.00338554538092, 19.120321992615388]}, "properties": {"lst": 36.72, "ndvi": 0.422, "ndbi": 0.09, "risk": "High", "heat_zone": 2, "color": "#e67e22", "city": "Mumbai"}}, {"type": "Feature", "geometry": {"type": "Point", "coordinates": [72.97791338148235, 18.917419707396466]}, "properties": {"lst": 41.74, "ndvi": 0.148, "ndbi": -0.014, "risk": "Critical", "heat_zone": 3, "color": "#e74c3c", "city": "Mumbai"}}, {"type": "Feature", "geometry": {"type": "Point", "coordinates": [73.02662724866049, 18.98286479601556]}, "properties": {"lst": 37.71, "ndvi": 0.221, "ndbi": 0.016, "risk": "Critical", "heat_zone": 3, "color": "#e74c3c", "city": "Mumbai"}}, {"type": "Feature", "geometry": {"type": "Point", "coordinates": [72.79827387012756, 18.961086851963834]}, "properties": {"lst": 30.08, "ndvi": -0.22, "ndbi": -0.277, "risk": "Low", "heat_zone": 0, "color": "#2ecc71", "city": "Mumbai"}}, {"type": "Feature", "geometry": {"type": "Point", "coordinates": [72.97334251646804, 19.093136332076103]}, "properties": {"lst": 28.46, "ndvi": -0.184, "ndbi": -0.265, "risk": "Low", "heat_zone": 0, "color": "#2ecc71", "city": "Mumbai"}}, {"type": "Feature", "geometry": {"type": "Point", "coordinates": [73.03201165772711, 18.942629471420894]}, "properties": {"lst": 41.72, "ndvi": 0.117, "ndbi": 0.031, "risk": "Critical", "heat_zone": 3, "color": "#e74c3c", "city": "Mumbai"}}, {"type": "Feature", "geometry": {"type": "Point", "coordinates": [72.86848731865244, 19.030952231009696]}, "properties": {"lst": 37.67, "ndvi": 0.291, "ndbi": -0.117, "risk": "High", "heat_zone": 2, "color": "#e67e22", "city": "Mumbai"}}, {"type": "Feature", "geometry": {"type": "Point", "coordinates": [73.04524265444779, 18.902413051283187]}, "properties": {"lst": 41.18, "ndvi": 0.167, "ndbi": -0.003, "risk": "Critical", "heat_zone": 3, "color": "#e74c3c", "city": "Mumbai"}}, {"type": "Feature", "geometry": {"type": "Point", "coordinates": [72.9536046442328, 19.11947561475844]}, "properties": {"lst": 33.03, "ndvi": 0.523, "ndbi": -0.206, "risk": "Moderate", "heat_zone": 1, "color": "#f1c40f", "city": "Mumbai"}}, {"type": "Feature", "geometry": {"type": "Point", "coordinates": [72.97596090533348, 18.90810495283543]}, "properties": {"lst": 39.04, "ndvi": 0.225, "ndbi": 0.102, "risk": "Critical", "heat_zone": 3, "color": "#e74c3c", "city": "Mumbai"}}, {"type": "Feature", "geometry": {"type": "Point", "coordinates": [72.84938748447837, 19.10707163413037]}, "properties": {"lst": 35.05, "ndvi": 0.264, "ndbi": -0.063, "risk": "High", "heat_zone": 2, "color": "#e67e22", "city": "Mumbai"}}, {"type": "Feature", "geometry": {"type": "Point", "coordinates": [72.9613942708283, 18.92793456356015]}, "properties": {"lst": 39.89, "ndvi": 0.119, "ndbi": -0.018, "risk": "Critical", "heat_zone": 3, "color": "#e74c3c", "city": "Mumbai"}}, {"type": "Feature", "geometry": {"type": "Point", "coordinates": [72.82147117067599, 19.104406401533165]}, "properties": {"lst": 29.03, "ndvi": -0.245, "ndbi": -0.278, "risk": "Low", "heat_zone": 0, "color": "#2ecc71", "city": "Mumbai"}}, {"type": "Feature", "geometry": {"type": "Point", "coordinates": [72.82742988058459, 18.948481294500933]}, "properties": {"lst": 39.59, "ndvi": 0.124, "ndbi": 0.076, "risk": "Critical", "heat_zone": 3, "color": "#e74c3c", "city": "Mumbai"}}, {"type": "Feature", "geometry": {"type": "Point", "coordinates": [73.02239875204266, 19.14302142557173]}, "properties": {"lst": 35.11, "ndvi": 0.361, "ndbi": -0.001, "risk": "High", "heat_zone": 2, "color": "#e67e22", "city": "Mumbai"}}, {"type": "Feature", "geometry": {"type": "Point", "coordinates": [72.84984153705554, 19.04395228715919]}, "properties": {"lst": 41.3, "ndvi": 0.292, "ndbi": -0.027, "risk": "Critical", "heat_zone": 3, "color": "#e74c3c", "city": "Mumbai"}}, {"type": "Feature", "geometry": {"type": "Point", "coordinates": [72.9777259581274, 18.95210888303162]}, "properties": {"lst": 32.35, "ndvi": 0.555, "ndbi": -0.323, "risk": "Moderate", "heat_zone": 1, "color": "#f1c40f", "city": "Mumbai"}}, {"type": "Feature", "geometry": {"type": "Point", "coordinates": [72.94703473263372, 18.895442338040027]}, "properties": {"lst": 34.75, "ndvi": 0.217, "ndbi": -0.142, "risk": "High", "heat_zone": 2, "color": "#e67e22", "city": "Mumbai"}}, {"type": "Feature", "geometry": {"type": "Point", "coordinates": [73.0385938238164, 18.971396295477863]}, "properties": {"lst": 40.11, "ndvi": 0.25, "ndbi": 0.027, "risk": "Critical", "heat_zone": 3, "color": "#e74c3c", "city": "Mumbai"}}, {"type": "Feature", "geometry": {"type": "Point", "coordinates": [72.94236739271894, 18.92712378495301]}, "properties": {"lst": 28.83, "ndvi": -0.291, "ndbi": -0.326, "risk": "Low", "heat_zone": 0, "color": "#2ecc71", "city": "Mumbai"}}, {"type": "Feature", "geometry": {"type": "Point", "coordinates": [72.82204210170912, 19.1365603146332]}, "properties": {"lst": 41.09, "ndvi": 0.237, "ndbi": 0.079, "risk": "Critical", "heat_zone": 3, "color": "#e74c3c", "city": "Mumbai"}}, {"type": "Feature", "geometry": {"type": "Point", "coordinates": [73.03466733460773, 19.01437433118297]}, "properties": {"lst": 38.28, "ndvi": 0.289, "ndbi": -0.005, "risk": "Critical", "heat_zone": 3, "color": "#e74c3c", "city": "Mumbai"}}, {"type": "Feature", "geometry": {"type": "Point", "coordinates": [72.85981114911105, 18.995087550999383]}, "properties": {"lst": 38.2, "ndvi": 0.229, "ndbi": 0.058, "risk": "Critical", "heat_zone": 3, "color": "#e74c3c", "city": "Mumbai"}}, {"type": "Feature", "geometry": {"type": "Point", "coordinates": [72.8957994884224, 19.11992230407685]}, "properties": {"lst": 34.8, "ndvi": 0.401, "ndbi": -0.046, "risk": "High", "heat_zone": 2, "color": "#e67e22", "city": "Mumbai"}}, {"type": "Feature", "geometry": {"type": "Point", "coordinates": [73.03250216245141, 18.992439337773835]}, "properties": {"lst": 36.42, "ndvi": 0.217, "ndbi": 0.027, "risk": "Critical", "heat_zone": 3, "color": "#e74c3c", "city": "Mumbai"}}, {"type": "Feature", "geometry": {"type": "Point", "coordinates": [72.8744184776416, 19.05178624508256]}, "properties": {"lst": 36.51, "ndvi": 0.334, "ndbi": -0.089, "risk": "High", "heat_zone": 2, "color": "#e67e22", "city": "Mumbai"}}, {"type": "Feature", "geometry": {"type": "Point", "coordinates": [72.82180029945751, 19.06628712590906]}, "properties": {"lst": 31.21, "ndvi": 0.174, "ndbi": -0.184, "risk": "Low", "heat_zone": 0, "color": "#2ecc71", "city": "Mumbai"}}, {"type": "Feature", "geometry": {"type": "Point", "coordinates": [72.88628306787842, 19.114266930616918]}, "properties": {"lst": 37.27, "ndvi": 0.491, "ndbi": -0.042, "risk": "High", "heat_zone": 2, "color": "#e67e22", "city": "Mumbai"}}, {"type": "Feature", "geometry": {"type": "Point", "coordinates": [72.8204348977751, 19.02396144736381]}, "properties": {"lst": 29.05, "ndvi": -0.235, "ndbi": -0.258, "risk": "Low", "heat_zone": 0, "color": "#2ecc71", "city": "Mumbai"}}, {"type": "Feature", "geometry": {"type": "Point", "coordinates": [73.0121748371171, 19.09934464837619]}, "properties": {"lst": 38.75, "ndvi": 0.272, "ndbi": 0.0, "risk": "Critical", "heat_zone": 3, "color": "#e74c3c", "city": "Mumbai"}}, {"type": "Feature", "geometry": {"type": "Point", "coordinates": [72.79223019238498, 19.145796753493027]}, "properties": {"lst": 33.71, "ndvi": 0.558, "ndbi": -0.229, "risk": "Moderate", "heat_zone": 1, "color": "#f1c40f", "city": "Mumbai"}}, {"type": "Feature", "geometry": {"type": "Point", "coordinates": [72.8804587492462, 19.13465179285948]}, "properties": {"lst": 36.85, "ndvi": 0.461, "ndbi": -0.054, "risk": "High", "heat_zone": 2, "color": "#e67e22", "city": "Mumbai"}}, {"type": "Feature", "geometry": {"type": "Point", "coordinates": [72.98046564244858, 19.06285927704242]}, "properties": {"lst": 31.62, "ndvi": 0.372, "ndbi": -0.179, "risk": "High", "heat_zone": 2, "color": "#e67e22", "city": "Mumbai"}}, {"type": "Feature", "geometry": {"type": "Point", "coordinates": [72.98023747876896, 18.94032294150093]}, "properties": {"lst": 33.97, "ndvi": 0.406, "ndbi": -0.109, "risk": "High", "heat_zone": 2, "color": "#e67e22", "city": "Mumbai"}}, {"type": "Feature", "geometry": {"type": "Point", "coordinates": [72.99329808951029, 18.887999012925043]}, "properties": {"lst": 39.85, "ndvi": 0.231, "ndbi": 0.035, "risk": "Critical", "heat_zone": 3, "color": "#e74c3c", "city": "Mumbai"}}, {"type": "Feature", "geometry": {"type": "Point", "coordinates": [72.90194990584459, 19.114933728693984]}, "properties": {"lst": 36.83, "ndvi": 0.199, "ndbi": -0.078, "risk": "Critical", "heat_zone": 3, "color": "#e74c3c", "city": "Mumbai"}}, {"type": "Feature", "geometry": {"type": "Point", "coordinates": [72.83782555558079, 19.116704959457067]}, "properties": {"lst": 41.01, "ndvi": 0.32, "ndbi": 0.012, "risk": "Critical", "heat_zone": 3, "color": "#e74c3c", "city": "Mumbai"}}, {"type": "Feature", "geometry": {"type": "Point", "coordinates": [73.04756015855986, 19.01409875035002]}, "properties": {"lst": 28.75, "ndvi": -0.115, "ndbi": -0.297, "risk": "Low", "heat_zone": 0, "color": "#2ecc71", "city": "Mumbai"}}, {"type": "Feature", "geometry": {"type": "Point", "coordinates": [72.98483349285034, 19.12629962325353]}, "properties": {"lst": 31.96, "ndvi": 0.608, "ndbi": -0.378, "risk": "Moderate", "heat_zone": 1, "color": "#f1c40f", "city": "Mumbai"}}, {"type": "Feature", "geometry": {"type": "Point", "coordinates": [72.97161656431855, 19.03965400743431]}, "properties": {"lst": 28.87, "ndvi": -0.288, "ndbi": -0.258, "risk": "Low", "heat_zone": 0, "color": "#2ecc71", "city": "Mumbai"}}, {"type": "Feature", "geometry": {"type": "Point", "coordinates": [72.82027107542868, 19.04934699674855]}, "properties": {"lst": 31.06, "ndvi": -0.059, "ndbi": -0.164, "risk": "Low", "heat_zone": 0, "color": "#2ecc71", "city": "Mumbai"}}, {"type": "Feature", "geometry": {"type": "Point", "coordinates": [72.91445754465236, 19.03348059089742]}, "properties": {"lst": 29.18, "ndvi": 0.563, "ndbi": -0.157, "risk": "Moderate", "heat_zone": 1, "color": "#f1c40f", "city": "Mumbai"}}, {"type": "Feature", "geometry": {"type": "Point", "coordinates": [72.79519802099936, 19.126828901701703]}, "properties": {"lst": 28.6, "ndvi": -0.238, "ndbi": -0.207, "risk": "Low", "heat_zone": 0, "color": "#2ecc71", "city": "Mumbai"}}, {"type": "Feature", "geometry": {"type": "Point", "coordinates": [73.03759375319554, 18.93770709699251]}, "properties": {"lst": 35.04, "ndvi": 0.364, "ndbi": 0.014, "risk": "High", "heat_zone": 2, "color": "#e67e22", "city": "Mumbai"}}, {"type": "Feature", "geometry": {"type": "Point", "coordinates": [73.00484685871822, 19.130771870339423]}, "properties": {"lst": 38.1, "ndvi": 0.31, "ndbi": -0.047, "risk": "Critical", "heat_zone": 3, "color": "#e74c3c", "city": "Mumbai"}}, {"type": "Feature", "geometry": {"type": "Point", "coordinates": [73.02915491451547, 19.018099974606734]}, "properties": {"lst": 37.79, "ndvi": 0.333, "ndbi": 0.02, "risk": "Critical", "heat_zone": 3, "color": "#e74c3c", "city": "Mumbai"}}, {"type": "Feature", "geometry": {"type": "Point", "coordinates": [72.92971494992376, 18.96237244552108]}, "properties": {"lst": 32.65, "ndvi": 0.543, "ndbi": -0.221, "risk": "Moderate", "heat_zone": 1, "color": "#f1c40f", "city": "Mumbai"}}, {"type": "Feature", "geometry": {"type": "Point", "coordinates": [72.95114595724533, 18.91249460729052]}, "properties": {"lst": 29.61, "ndvi": -0.093, "ndbi": -0.284, "risk": "Low", "heat_zone": 0, "color": "#2ecc71", "city": "Mumbai"}}, {"type": "Feature", "geometry": {"type": "Point", "coordinates": [72.91829525712635, 19.079489796222195]}, "properties": {"lst": 34.83, "ndvi": 0.689, "ndbi": -0.288, "risk": "Moderate", "heat_zone": 1, "color": "#f1c40f", "city": "Mumbai"}}, {"type": "Feature", "geometry": {"type": "Point", "coordinates": [73.00772134189762, 19.06311620373882]}, "properties": {"lst": 39.26, "ndvi": 0.239, "ndbi": 0.076, "risk": "Critical", "heat_zone": 3, "color": "#e74c3c", "city": "Mumbai"}}, {"type": "Feature", "geometry": {"type": "Point", "coordinates": [72.81216624853569, 18.98512539553543]}, "properties": {"lst": 32.6, "ndvi": -0.004, "ndbi": -0.023, "risk": "Critical", "heat_zone": 3, "color": "#e74c3c", "city": "Mumbai"}}, {"type": "Feature", "geometry": {"type": "Point", "coordinates": [72.8562354626256, 18.99470332531844]}, "properties": {"lst": 41.3, "ndvi": 0.133, "ndbi": -0.024, "risk": "Critical", "heat_zone": 3, "color": "#e74c3c", "city": "Mumbai"}}, {"type": "Feature", "geometry": {"type": "Point", "coordinates": [72.9566403179104, 19.1271061190804]}, "properties": {"lst": 34.76, "ndvi": 0.461, "ndbi": -0.082, "risk": "High", "heat_zone": 2, "color": "#e67e22", "city": "Mumbai"}}, {"type": "Feature", "geometry": {"type": "Point", "coordinates": [72.83975293900879, 18.923919472883505]}, "properties": {"lst": 32.36, "ndvi": -0.188, "ndbi": -0.211, "risk": "Low", "heat_zone": 0, "color": "#2ecc71", "city": "Mumbai"}}, {"type": "Feature", "geometry": {"type": "Point", "coordinates": [72.82160398250495, 18.966779763739428]}, "properties": {"lst": 36.95, "ndvi": 0.145, "ndbi": 0.018, "risk": "Critical", "heat_zone": 3, "color": "#e74c3c", "city": "Mumbai"}}, {"type": "Feature", "geometry": {"type": "Point", "coordinates": [72.8461598446067, 19.055311045038444]}, "properties": {"lst": 38.61, "ndvi": 0.29, "ndbi": -0.05, "risk": "Critical", "heat_zone": 3, "color": "#e74c3c", "city": "Mumbai"}}, {"type": "Feature", "geometry": {"type": "Point", "coordinates": [72.97234427017881, 18.920408071207323]}, "properties": {"lst": 39.54, "ndvi": 0.315, "ndbi": -0.039, "risk": "Critical", "heat_zone": 3, "color": "#e74c3c", "city": "Mumbai"}}, {"type": "Feature", "geometry": {"type": "Point", "coordinates": [72.98304187597704, 19.14454138233075]}, "properties": {"lst": 31.91, "ndvi": 0.579, "ndbi": -0.285, "risk": "Moderate", "heat_zone": 1, "color": "#f1c40f", "city": "Mumbai"}}, {"type": "Feature", "geometry": {"type": "Point", "coordinates": [72.94541325418716, 18.916620833486885]}, "properties": {"lst": 29.02, "ndvi": -0.264, "ndbi": -0.209, "risk": "Low", "heat_zone": 0, "color": "#2ecc71", "city": "Mumbai"}}, {"type": "Feature", "geometry": {"type": "Point", "coordinates": [72.90465748258293, 19.065847476341013]}, "properties": {"lst": 35.83, "ndvi": 0.43, "ndbi": -0.19, "risk": "High", "heat_zone": 2, "color": "#e67e22", "city": "Mumbai"}}, {"type": "Feature", "geometry": {"type": "Point", "coordinates": [73.00252565659413, 18.963565237753617]}, "properties": {"lst": 31.11, "ndvi": 0.197, "ndbi": -0.291, "risk": "Low", "heat_zone": 0, "color": "#2ecc71", "city": "Mumbai"}}, {"type": "Feature", "geometry": {"type": "Point", "coordinates": [72.84821681552472, 19.071143588404325]}, "properties": {"lst": 38.32, "ndvi": 0.24, "ndbi": -0.037, "risk": "Critical", "heat_zone": 3, "color": "#e74c3c", "city": "Mumbai"}}, {"type": "Feature", "geometry": {"type": "Point", "coordinates": [73.00423411090915, 18.94754119708987]}, "properties": {"lst": 32.15, "ndvi": 0.1, "ndbi": -0.152, "risk": "Low", "heat_zone": 0, "color": "#2ecc71", "city": "Mumbai"}}, {"type": "Feature", "geometry": {"type": "Point", "coordinates": [72.86994823869082, 19.09775999582707]}, "properties": {"lst": 42.79, "ndvi": 0.26, "ndbi": -0.034, "risk": "Critical", "heat_zone": 3, "color": "#e74c3c", "city": "Mumbai"}}, {"type": "Feature", "geometry": {"type": "Point", "coordinates": [72.94900502297658, 19.0848712729806]}, "properties": {"lst": 30.64, "ndvi": 0.636, "ndbi": -0.339, "risk": "Moderate", "heat_zone": 1, "color": "#f1c40f", "city": "Mumbai"}}, {"type": "Feature", "geometry": {"type": "Point", "coordinates": [72.94310674116635, 18.94434936801735]}, "properties": {"lst": 36.02, "ndvi": 0.094, "ndbi": -0.022, "risk": "Critical", "heat_zone": 3, "color": "#e74c3c", "city": "Mumbai"}}, {"type": "Feature", "geometry": {"type": "Point", "coordinates": [72.88429744536731, 19.00157637059084]}, "properties": {"lst": 30.54, "ndvi": 0.071, "ndbi": -0.287, "risk": "Low", "heat_zone": 0, "color": "#2ecc71", "city": "Mumbai"}}, {"type": "Feature", "geometry": {"type": "Point", "coordinates": [73.00730236073925, 19.02061625997809]}, "properties": {"lst": 37.76, "ndvi": 0.365, "ndbi": -0.122, "risk": "High", "heat_zone": 2, "color": "#e67e22", "city": "Mumbai"}}, {"type": "Feature", "geometry": {"type": "Point", "coordinates": [73.0488107090638, 18.96301817707048]}, "properties": {"lst": 42.5, "ndvi": 0.103, "ndbi": 0.017, "risk": "Critical", "heat_zone": 3, "color": "#e74c3c", "city": "Mumbai"}}, {"type": "Feature", "geometry": {"type": "Point", "coordinates": [73.01787324084364, 19.03010182958057]}, "properties": {"lst": 36.78, "ndvi": 0.408, "ndbi": -0.138, "risk": "High", "heat_zone": 2, "color": "#e67e22", "city": "Mumbai"}}, {"type": "Feature", "geometry": {"type": "Point", "coordinates": [72.87714324746553, 19.003641311480795]}, "properties": {"lst": 29.6, "ndvi": -0.079, "ndbi": -0.328, "risk": "Low", "heat_zone": 0, "color": "#2ecc71", "city": "Mumbai"}}, {"type": "Feature", "geometry": {"type": "Point", "coordinates": [73.0034123832062, 19.00396066193685]}, "properties": {"lst": 32.12, "ndvi": 0.55, "ndbi": -0.32, "risk": "Moderate", "heat_zone": 1, "color": "#f1c40f", "city": "Mumbai"}}, {"type": "Feature", "geometry": {"type": "Point", "coordinates": [73.03836701847484, 19.04896816755356]}, "properties": {"lst": 34.05, "ndvi": 0.414, "ndbi": -0.052, "risk": "High", "heat_zone": 2, "color": "#e67e22", "city": "Mumbai"}}, {"type": "Feature", "geometry": {"type": "Point", "coordinates": [72.82539882259402, 18.94005422158204]}, "properties": {"lst": 37.64, "ndvi": 0.18, "ndbi": 0.016, "risk": "Critical", "heat_zone": 3, "color": "#e74c3c", "city": "Mumbai"}}, {"type": "Feature", "geometry": {"type": "Point", "coordinates": [72.88762713427322, 19.143052831334096]}, "properties": {"lst": 37.25, "ndvi": 0.497, "ndbi": -0.059, "risk": "High", "heat_zone": 2, "color": "#e67e22", "city": "Mumbai"}}, {"type": "Feature", "geometry": {"type": "Point", "coordinates": [73.0165557283738, 19.1164458300741]}, "properties": {"lst": 36.68, "ndvi": 0.558, "ndbi": -0.167, "risk": "Moderate", "heat_zone": 1, "color": "#f1c40f", "city": "Mumbai"}}, {"type": "Feature", "geometry": {"type": "Point", "coordinates": [73.04042173590547, 18.99124631121272]}, "properties": {"lst": 41.41, "ndvi": 0.132, "ndbi": 0.053, "risk": "Critical", "heat_zone": 3, "color": "#e74c3c", "city": "Mumbai"}}, {"type": "Feature", "geometry": {"type": "Point", "coordinates": [72.88786553406217, 19.04405062670312]}, "properties": {"lst": 37.85, "ndvi": 0.424, "ndbi": -0.173, "risk": "High", "heat_zone": 2, "color": "#e67e22", "city": "Mumbai"}}, {"type": "Feature", "geometry": {"type": "Point", "coordinates": [73.02089989988389, 19.113800805166736]}, "properties": {"lst": 39.61, "ndvi": 0.28, "ndbi": -0.053, "risk": "Critical", "heat_zone": 3, "color": "#e74c3c", "city": "Mumbai"}}, {"type": "Feature", "geometry": {"type": "Point", "coordinates": [72.99801683160666, 19.05741638608937]}, "properties": {"lst": 32.17, "ndvi": 0.521, "ndbi": -0.238, "risk": "Moderate", "heat_zone": 1, "color": "#f1c40f", "city": "Mumbai"}}, {"type": "Feature", "geometry": {"type": "Point", "coordinates": [72.93712871474696, 18.94701625013645]}, "properties": {"lst": 28.96, "ndvi": -0.274, "ndbi": -0.341, "risk": "Low", "heat_zone": 0, "color": "#2ecc71", "city": "Mumbai"}}, {"type": "Feature", "geometry": {"type": "Point", "coordinates": [72.86672816475955, 19.13795229180137]}, "properties": {"lst": 35.02, "ndvi": 0.31, "ndbi": -0.02, "risk": "High", "heat_zone": 2, "color": "#e67e22", "city": "Mumbai"}}, {"type": "Feature", "geometry": {"type": "Point", "coordinates": [72.95532706267149, 19.0778402706926]}, "properties": {"lst": 30.68, "ndvi": 0.598, "ndbi": -0.323, "risk": "Moderate", "heat_zone": 1, "color": "#f1c40f", "city": "Mumbai"}}, {"type": "Feature", "geometry": {"type": "Point", "coordinates": [72.82061870910204, 19.110046204919755]}, "properties": {"lst": 29.14, "ndvi": -0.234, "ndbi": -0.308, "risk": "Low", "heat_zone": 0, "color": "#2ecc71", "city": "Mumbai"}}, {"type": "Feature", "geometry": {"type": "Point", "coordinates": [72.94409026528315, 19.00724088195171]}, "properties": {"lst": 28.7, "ndvi": -0.276, "ndbi": -0.354, "risk": "Low", "heat_zone": 0, "color": "#2ecc71", "city": "Mumbai"}}, {"type": "Feature", "geometry": {"type": "Point", "coordinates": [72.81874643278672, 19.071815062857237]}, "properties": {"lst": 28.77, "ndvi": -0.263, "ndbi": -0.238, "risk": "Low", "heat_zone": 0, "color": "#2ecc71", "city": "Mumbai"}}, {"type": "Feature", "geometry": {"type": "Point", "coordinates": [73.0225494202495, 18.962972541401967]}, "properties": {"lst": 37.37, "ndvi": 0.243, "ndbi": -0.018, "risk": "Critical", "heat_zone": 3, "color": "#e74c3c", "city": "Mumbai"}}, {"type": "Feature", "geometry": {"type": "Point", "coordinates": [73.03630398881194, 18.905030902245]}, "properties": {"lst": 35.34, "ndvi": 0.308, "ndbi": 0.09, "risk": "Critical", "heat_zone": 3, "color": "#e74c3c", "city": "Mumbai"}}, {"type": "Feature", "geometry": {"type": "Point", "coordinates": [72.87207567488231, 19.129081892601807]}, "properties": {"lst": 40.75, "ndvi": 0.296, "ndbi": 0.009, "risk": "Critical", "heat_zone": 3, "color": "#e74c3c", "city": "Mumbai"}}, {"type": "Feature", "geometry": {"type": "Point", "coordinates": [72.90478051992305, 18.99834957673251]}, "properties": {"lst": 37.11, "ndvi": 0.18, "ndbi": 0.003, "risk": "Critical", "heat_zone": 3, "color": "#e74c3c", "city": "Mumbai"}}, {"type": "Feature", "geometry": {"type": "Point", "coordinates": [72.82181462247401, 18.904017737217604]}, "properties": {"lst": 28.42, "ndvi": -0.283, "ndbi": -0.324, "risk": "Low", "heat_zone": 0, "color": "#2ecc71", "city": "Mumbai"}}, {"type": "Feature", "geometry": {"type": "Point", "coordinates": [72.91831559658824, 19.031576105508123]}, "properties": {"lst": 32.2, "ndvi": 0.444, "ndbi": -0.043, "risk": "High", "heat_zone": 2, "color": "#e67e22", "city": "Mumbai"}}, {"type": "Feature", "geometry": {"type": "Point", "coordinates": [73.00890544606942, 19.096103274649625]}, "properties": {"lst": 39.24, "ndvi": 0.264, "ndbi": -0.018, "risk": "Critical", "heat_zone": 3, "color": "#e74c3c", "city": "Mumbai"}}, {"type": "Feature", "geometry": {"type": "Point", "coordinates": [72.86214482024201, 19.000248169590687]}, "properties": {"lst": 31.45, "ndvi": 0.093, "ndbi": -0.243, "risk": "Low", "heat_zone": 0, "color": "#2ecc71", "city": "Mumbai"}}, {"type": "Feature", "geometry": {"type": "Point", "coordinates": [72.86663483452452, 19.026397207980555]}, "properties": {"lst": 38.25, "ndvi": 0.442, "ndbi": -0.198, "risk": "High", "heat_zone": 2, "color": "#e67e22", "city": "Mumbai"}}, {"type": "Feature", "geometry": {"type": "Point", "coordinates": [72.94483434856681, 19.12285726200048]}, "properties": {"lst": 34.22, "ndvi": 0.591, "ndbi": -0.286, "risk": "Moderate", "heat_zone": 1, "color": "#f1c40f", "city": "Mumbai"}}, {"type": "Feature", "geometry": {"type": "Point", "coordinates": [72.87822868645243, 19.006771084252048]}, "properties": {"lst": 31.41, "ndvi": 0.503, "ndbi": -0.3, "risk": "Moderate", "heat_zone": 1, "color": "#f1c40f", "city": "Mumbai"}}, {"type": "Feature", "geometry": {"type": "Point", "coordinates": [72.97193259040738, 18.965436758114564]}, "properties": {"lst": 29.7, "ndvi": 0.0, "ndbi": -0.287, "risk": "Low", "heat_zone": 0, "color": "#2ecc71", "city": "Mumbai"}}, {"type": "Feature", "geometry": {"type": "Point", "coordinates": [72.92785965448185, 19.09733478076541]}, "properties": {"lst": 38.92, "ndvi": 0.238, "ndbi": -0.037, "risk": "Critical", "heat_zone": 3, "color": "#e74c3c", "city": "Mumbai"}}, {"type": "Feature", "geometry": {"type": "Point", "coordinates": [73.02569343016873, 19.052287158402656]}, "properties": {"lst": 38.73, "ndvi": 0.344, "ndbi": -0.142, "risk": "High", "heat_zone": 2, "color": "#e67e22", "city": "Mumbai"}}, {"type": "Feature", "geometry": {"type": "Point", "coordinates": [72.81797251918084, 19.12635294181061]}, "properties": {"lst": 33.72, "ndvi": 0.62, "ndbi": -0.355, "risk": "Moderate", "heat_zone": 1, "color": "#f1c40f", "city": "Mumbai"}}, {"type": "Feature", "geometry": {"type": "Point", "coordinates": [72.94307159969583, 19.09736551451331]}, "properties": {"lst": 32.13, "ndvi": 0.574, "ndbi": -0.234, "risk": "Moderate", "heat_zone": 1, "color": "#f1c40f", "city": "Mumbai"}}, {"type": "Feature", "geometry": {"type": "Point", "coordinates": [72.87573058961958, 19.085153832554628]}, "properties": {"lst": 42.71, "ndvi": 0.172, "ndbi": 0.056, "risk": "Critical", "heat_zone": 3, "color": "#e74c3c", "city": "Mumbai"}}, {"type": "Feature", "geometry": {"type": "Point", "coordinates": [72.99148865687569, 19.069235870088367]}, "properties": {"lst": 37.51, "ndvi": 0.363, "ndbi": -0.104, "risk": "High", "heat_zone": 2, "color": "#e67e22", "city": "Mumbai"}}, {"type": "Feature", "geometry": {"type": "Point", "coordinates": [72.98686320349492, 19.064163888617493]}, "properties": {"lst": 31.06, "ndvi": 0.486, "ndbi": -0.295, "risk": "Moderate", "heat_zone": 1, "color": "#f1c40f", "city": "Mumbai"}}, {"type": "Feature", "geometry": {"type": "Point", "coordinates": [72.90077418166878, 19.138991098545752]}, "properties": {"lst": 31.9, "ndvi": 0.632, "ndbi": -0.232, "risk": "Moderate", "heat_zone": 1, "color": "#f1c40f", "city": "Mumbai"}}, {"type": "Feature", "geometry": {"type": "Point", "coordinates": [73.03205303937953, 18.88440721495102]}, "properties": {"lst": 34.77, "ndvi": 0.472, "ndbi": -0.194, "risk": "High", "heat_zone": 2, "color": "#e67e22", "city": "Mumbai"}}, {"type": "Feature", "geometry": {"type": "Point", "coordinates": [72.8263430744596, 19.006239206787296]}, "properties": {"lst": 35.77, "ndvi": 0.323, "ndbi": -0.158, "risk": "High", "heat_zone": 2, "color": "#e67e22", "city": "Mumbai"}}, {"type": "Feature", "geometry": {"type": "Point", "coordinates": [73.04107413063066, 19.08022892596461]}, "properties": {"lst": 33.96, "ndvi": 0.434, "ndbi": -0.104, "risk": "High", "heat_zone": 2, "color": "#e67e22", "city": "Mumbai"}}, {"type": "Feature", "geometry": {"type": "Point", "coordinates": [72.9616174622246, 19.1036457187423]}, "properties": {"lst": 29.71, "ndvi": 0.098, "ndbi": -0.25, "risk": "Low", "heat_zone": 0, "color": "#2ecc71", "city": "Mumbai"}}, {"type": "Feature", "geometry": {"type": "Point", "coordinates": [72.96370642403055, 18.89760703395413]}, "properties": {"lst": 36.09, "ndvi": 0.153, "ndbi": 0.073, "risk": "Critical", "heat_zone": 3, "color": "#e74c3c", "city": "Mumbai"}}, {"type": "Feature", "geometry": {"type": "Point", "coordinates": [72.81713212180155, 19.132905964032798]}, "properties": {"lst": 37.4, "ndvi": 0.293, "ndbi": -0.076, "risk": "High", "heat_zone": 2, "color": "#e67e22", "city": "Mumbai"}}, {"type": "Feature", "geometry": {"type": "Point", "coordinates": [72.89837672480503, 19.040087794422387]}, "properties": {"lst": 36.51, "ndvi": 0.457, "ndbi": -0.112, "risk": "High", "heat_zone": 2, "color": "#e67e22", "city": "Mumbai"}}, {"type": "Feature", "geometry": {"type": "Point", "coordinates": [73.00355255218828, 19.0456648147918]}, "properties": {"lst": 32.5, "ndvi": 0.536, "ndbi": -0.29, "risk": "Moderate", "heat_zone": 1, "color": "#f1c40f", "city": "Mumbai"}}, {"type": "Feature", "geometry": {"type": "Point", "coordinates": [72.83865288145252, 19.0300732044604]}, "properties": {"lst": 35.73, "ndvi": 0.179, "ndbi": -0.054, "risk": "Critical", "heat_zone": 3, "color": "#e74c3c", "city": "Mumbai"}}, {"type": "Feature", "geometry": {"type": "Point", "coordinates": [72.96125109759855, 18.912947400088616]}, "properties": {"lst": 32.39, "ndvi": 0.602, "ndbi": -0.303, "risk": "Moderate", "heat_zone": 1, "color": "#f1c40f", "city": "Mumbai"}}, {"type": "Feature", "geometry": {"type": "Point", "coordinates": [72.9460608457082, 19.14812050698416]}, "properties": {"lst": 38.36, "ndvi": 0.218, "ndbi": 0.02, "risk": "Critical", "heat_zone": 3, "color": "#e74c3c", "city": "Mumbai"}}, {"type": "Feature", "geometry": {"type": "Point", "coordinates": [72.99163050121919, 19.00889110591959]}, "properties": {"lst": 29.03, "ndvi": -0.28, "ndbi": -0.319, "risk": "Low", "heat_zone": 0, "color": "#2ecc71", "city": "Mumbai"}}, {"type": "Feature", "geometry": {"type": "Point", "coordinates": [72.98593845807657, 19.04817752387116]}, "properties": {"lst": 28.77, "ndvi": -0.248, "ndbi": -0.31, "risk": "Low", "heat_zone": 0, "color": "#2ecc71", "city": "Mumbai"}}, {"type": "Feature", "geometry": {"type": "Point", "coordinates": [73.01484286193757, 19.073909106403043]}, "properties": {"lst": 40.12, "ndvi": 0.18, "ndbi": 0.004, "risk": "Critical", "heat_zone": 3, "color": "#e74c3c", "city": "Mumbai"}}, {"type": "Feature", "geometry": {"type": "Point", "coordinates": [72.89680459648523, 19.044504071096043]}, "properties": {"lst": 40.38, "ndvi": 0.2, "ndbi": 0.022, "risk": "Critical", "heat_zone": 3, "color": "#e74c3c", "city": "Mumbai"}}, {"type": "Feature", "geometry": {"type": "Point", "coordinates": [73.01272902063403, 19.105928112990025]}, "properties": {"lst": 37.73, "ndvi": 0.394, "ndbi": -0.102, "risk": "High", "heat_zone": 2, "color": "#e67e22", "city": "Mumbai"}}, {"type": "Feature", "geometry": {"type": "Point", "coordinates": [72.89793701091376, 19.10830437891397]}, "properties": {"lst": 39.08, "ndvi": 0.254, "ndbi": 0.014, "risk": "Critical", "heat_zone": 3, "color": "#e74c3c", "city": "Mumbai"}}, {"type": "Feature", "geometry": {"type": "Point", "coordinates": [72.91664822013917, 19.029180988764185]}, "properties": {"lst": 34.27, "ndvi": 0.427, "ndbi": -0.047, "risk": "High", "heat_zone": 2, "color": "#e67e22", "city": "Mumbai"}}, {"type": "Feature", "geometry": {"type": "Point", "coordinates": [72.80944152786472, 18.954565960141924]}, "properties": {"lst": 32.97, "ndvi": -0.044, "ndbi": -0.11, "risk": "Low", "heat_zone": 0, "color": "#2ecc71", "city": "Mumbai"}}, {"type": "Feature", "geometry": {"type": "Point", "coordinates": [72.99247664377917, 18.901365384701545]}, "properties": {"lst": 37.15, "ndvi": 0.326, "ndbi": -0.028, "risk": "High", "heat_zone": 2, "color": "#e67e22", "city": "Mumbai"}}, {"type": "Feature", "geometry": {"type": "Point", "coordinates": [73.04366889406454, 19.1298288315339]}, "properties": {"lst": 36.07, "ndvi": 0.492, "ndbi": -0.071, "risk": "High", "heat_zone": 2, "color": "#e67e22", "city": "Mumbai"}}, {"type": "Feature", "geometry": {"type": "Point", "coordinates": [73.00218102586781, 19.045543800582568]}, "properties": {"lst": 32.71, "ndvi": 0.511, "ndbi": -0.213, "risk": "Moderate", "heat_zone": 1, "color": "#f1c40f", "city": "Mumbai"}}, {"type": "Feature", "geometry": {"type": "Point", "coordinates": [73.0493117759779, 18.904756438082043]}, "properties": {"lst": 42.83, "ndvi": 0.183, "ndbi": 0.007, "risk": "Critical", "heat_zone": 3, "color": "#e74c3c", "city": "Mumbai"}}, {"type": "Feature", "geometry": {"type": "Point", "coordinates": [72.81312713628178, 18.967646437262896]}, "properties": {"lst": 37.07, "ndvi": 0.145, "ndbi": 0.121, "risk": "Critical", "heat_zone": 3, "color": "#e74c3c", "city": "Mumbai"}}, {"type": "Feature", "geometry": {"type": "Point", "coordinates": [72.83912923032983, 19.057137390943208]}, "properties": {"lst": 38.64, "ndvi": 0.121, "ndbi": 0.05, "risk": "Critical", "heat_zone": 3, "color": "#e74c3c", "city": "Mumbai"}}, {"type": "Feature", "geometry": {"type": "Point", "coordinates": [72.95363817790644, 19.11443594045735]}, "properties": {"lst": 32.83, "ndvi": 0.667, "ndbi": -0.342, "risk": "Moderate", "heat_zone": 1, "color": "#f1c40f", "city": "Mumbai"}}, {"type": "Feature", "geometry": {"type": "Point", "coordinates": [72.91859915547795, 19.105414581132464]}, "properties": {"lst": 35.82, "ndvi": 0.614, "ndbi": -0.222, "risk": "Moderate", "heat_zone": 1, "color": "#f1c40f", "city": "Mumbai"}}, {"type": "Feature", "geometry": {"type": "Point", "coordinates": [72.78505133878625, 19.14221616363387]}, "properties": {"lst": 28.88, "ndvi": -0.131, "ndbi": -0.176, "risk": "Low", "heat_zone": 0, "color": "#2ecc71", "city": "Mumbai"}}, {"type": "Feature", "geometry": {"type": "Point", "coordinates": [72.92189911244995, 19.027096361549457]}, "properties": {"lst": 31.05, "ndvi": 0.634, "ndbi": -0.23, "risk": "Moderate", "heat_zone": 1, "color": "#f1c40f", "city": "Mumbai"}}, {"type": "Feature", "geometry": {"type": "Point", "coordinates": [72.99448875259046, 18.951194444492423]}, "properties": {"lst": 29.74, "ndvi": -0.039, "ndbi": -0.33, "risk": "Low", "heat_zone": 0, "color": "#2ecc71", "city": "Mumbai"}}, {"type": "Feature", "geometry": {"type": "Point", "coordinates": [72.96975329781374, 18.91889316548928]}, "properties": {"lst": 39.81, "ndvi": 0.296, "ndbi": -0.057, "risk": "Critical", "heat_zone": 3, "color": "#e74c3c", "city": "Mumbai"}}, {"type": "Feature", "geometry": {"type": "Point", "coordinates": [72.86832871194335, 19.009099162329385]}, "properties": {"lst": 39.49, "ndvi": 0.27, "ndbi": -0.03, "risk": "Critical", "heat_zone": 3, "color": "#e74c3c", "city": "Mumbai"}}, {"type": "Feature", "geometry": {"type": "Point", "coordinates": [72.96055080792102, 19.10080011874648]}, "properties": {"lst": 29.73, "ndvi": 0.102, "ndbi": -0.235, "risk": "Low", "heat_zone": 0, "color": "#2ecc71", "city": "Mumbai"}}, {"type": "Feature", "geometry": {"type": "Point", "coordinates": [73.0457402673506, 19.05528925423844]}, "properties": {"lst": 39.21, "ndvi": 0.274, "ndbi": 0.076, "risk": "Critical", "heat_zone": 3, "color": "#e74c3c", "city": "Mumbai"}}, {"type": "Feature", "geometry": {"type": "Point", "coordinates": [72.95634092037233, 19.12218310303503]}, "properties": {"lst": 39.11, "ndvi": 0.247, "ndbi": -0.001, "risk": "Critical", "heat_zone": 3, "color": "#e74c3c", "city": "Mumbai"}}, {"type": "Feature", "geometry": {"type": "Point", "coordinates": [72.83601669600642, 19.008710734017548]}, "properties": {"lst": 38.63, "ndvi": 0.188, "ndbi": -0.003, "risk": "Critical", "heat_zone": 3, "color": "#e74c3c", "city": "Mumbai"}}, {"type": "Feature", "geometry": {"type": "Point", "coordinates": [72.80381724997912, 18.901571765803222]}, "properties": {"lst": 31.16, "ndvi": 0.152, "ndbi": -0.051, "risk": "High", "heat_zone": 2, "color": "#e67e22", "city": "Mumbai"}}, {"type": "Feature", "geometry": {"type": "Point", "coordinates": [72.84571720772831, 19.148780127187766]}, "properties": {"lst": 42.51, "ndvi": 0.179, "ndbi": 0.072, "risk": "Critical", "heat_zone": 3, "color": "#e74c3c", "city": "Mumbai"}}, {"type": "Feature", "geometry": {"type": "Point", "coordinates": [73.0164417148644, 19.035311322762016]}, "properties": {"lst": 39.19, "ndvi": 0.217, "ndbi": 0.017, "risk": "Critical", "heat_zone": 3, "color": "#e74c3c", "city": "Mumbai"}}, {"type": "Feature", "geometry": {"type": "Point", "coordinates": [72.85670243383272, 19.13157160267875]}, "properties": {"lst": 38.72, "ndvi": 0.108, "ndbi": -0.015, "risk": "Critical", "heat_zone": 3, "color": "#e74c3c", "city": "Mumbai"}}, {"type": "Feature", "geometry": {"type": "Point", "coordinates": [72.80790344823754, 18.98571878051422]}, "properties": {"lst": 28.95, "ndvi": -0.249, "ndbi": -0.237, "risk": "Low", "heat_zone": 0, "color": "#2ecc71", "city": "Mumbai"}}, {"type": "Feature", "geometry": {"type": "Point", "coordinates": [73.01318044872995, 19.00876298250532]}, "properties": {"lst": 36.42, "ndvi": 0.348, "ndbi": -0.104, "risk": "High", "heat_zone": 2, "color": "#e67e22", "city": "Mumbai"}}, {"type": "Feature", "geometry": {"type": "Point", "coordinates": [73.02637682754334, 19.095884870100228]}, "properties": {"lst": 40.51, "ndvi": 0.148, "ndbi": -0.004, "risk": "Critical", "heat_zone": 3, "color": "#e74c3c", "city": "Mumbai"}}, {"type": "Feature", "geometry": {"type": "Point", "coordinates": [72.94990073098893, 18.921397261624296]}, "properties": {"lst": 29.04, "ndvi": -0.207, "ndbi": -0.304, "risk": "Low", "heat_zone": 0, "color": "#2ecc71", "city": "Mumbai"}}, {"type": "Feature", "geometry": {"type": "Point", "coordinates": [72.91823156940943, 19.11226733457473]}, "properties": {"lst": 37.57, "ndvi": 0.182, "ndbi": 0.025, "risk": "Critical", "heat_zone": 3, "color": "#e74c3c", "city": "Mumbai"}}, {"type": "Feature", "geometry": {"type": "Point", "coordinates": [72.98792570439582, 19.05337155688824]}, "properties": {"lst": 29.62, "ndvi": -0.151, "ndbi": -0.315, "risk": "Low", "heat_zone": 0, "color": "#2ecc71", "city": "Mumbai"}}, {"type": "Feature", "geometry": {"type": "Point", "coordinates": [72.85629819925744, 19.125421290662665]}, "properties": {"lst": 41.55, "ndvi": 0.112, "ndbi": 0.017, "risk": "Critical", "heat_zone": 3, "color": "#e74c3c", "city": "Mumbai"}}, {"type": "Feature", "geometry": {"type": "Point", "coordinates": [72.95501567628239, 19.04109222718029]}, "properties": {"lst": 34.3, "ndvi": 0.357, "ndbi": -0.191, "risk": "High", "heat_zone": 2, "color": "#e67e22", "city": "Mumbai"}}, {"type": "Feature", "geometry": {"type": "Point", "coordinates": [73.03690650420276, 18.9707811441246]}, "properties": {"lst": 40.56, "ndvi": 0.177, "ndbi": 0.037, "risk": "Critical", "heat_zone": 3, "color": "#e74c3c", "city": "Mumbai"}}, {"type": "Feature", "geometry": {"type": "Point", "coordinates": [72.85891614641478, 19.045114958178623]}, "properties": {"lst": 41.86, "ndvi": 0.139, "ndbi": 0.078, "risk": "Critical", "heat_zone": 3, "color": "#e74c3c", "city": "Mumbai"}}, {"type": "Feature", "geometry": {"type": "Point", "coordinates": [72.97203243268524, 18.96730831551518]}, "properties": {"lst": 28.87, "ndvi": -0.189, "ndbi": -0.362, "risk": "Low", "heat_zone": 0, "color": "#2ecc71", "city": "Mumbai"}}, {"type": "Feature", "geometry": {"type": "Point", "coordinates": [72.93461326934633, 19.04029713889454]}, "properties": {"lst": 36.4, "ndvi": 0.417, "ndbi": -0.123, "risk": "High", "heat_zone": 2, "color": "#e67e22", "city": "Mumbai"}}, {"type": "Feature", "geometry": {"type": "Point", "coordinates": [72.99457753962234, 18.970065234768704]}, "properties": {"lst": 30.39, "ndvi": 0.105, "ndbi": -0.226, "risk": "Low", "heat_zone": 0, "color": "#2ecc71", "city": "Mumbai"}}, {"type": "Feature", "geometry": {"type": "Point", "coordinates": [73.01520709451611, 18.92200109886893]}, "properties": {"lst": 43.31, "ndvi": 0.165, "ndbi": 0.059, "risk": "Critical", "heat_zone": 3, "color": "#e74c3c", "city": "Mumbai"}}, {"type": "Feature", "geometry": {"type": "Point", "coordinates": [72.97225524230679, 18.926409876830185]}, "properties": {"lst": 34.62, "ndvi": 0.412, "ndbi": -0.158, "risk": "High", "heat_zone": 2, "color": "#e67e22", "city": "Mumbai"}}, {"type": "Feature", "geometry": {"type": "Point", "coordinates": [72.86604036681081, 19.13376930369264]}, "properties": {"lst": 39.94, "ndvi": 0.214, "ndbi": 0.008, "risk": "Critical", "heat_zone": 3, "color": "#e74c3c", "city": "Mumbai"}}, {"type": "Feature", "geometry": {"type": "Point", "coordinates": [72.89555976187637, 19.105666492872142]}, "properties": {"lst": 44.21, "ndvi": 0.291, "ndbi": 0.044, "risk": "Critical", "heat_zone": 3, "color": "#e74c3c", "city": "Mumbai"}}, {"type": "Feature", "geometry": {"type": "Point", "coordinates": [72.94438624175513, 18.940648274976606]}, "properties": {"lst": 36.82, "ndvi": 0.223, "ndbi": -0.114, "risk": "Critical", "heat_zone": 3, "color": "#e74c3c", "city": "Mumbai"}}, {"type": "Feature", "geometry": {"type": "Point", "coordinates": [72.97184119109023, 18.928101210835056]}, "properties": {"lst": 33.47, "ndvi": 0.498, "ndbi": -0.227, "risk": "Moderate", "heat_zone": 1, "color": "#f1c40f", "city": "Mumbai"}}, {"type": "Feature", "geometry": {"type": "Point", "coordinates": [72.83220333333293, 18.922970229695316]}, "properties": {"lst": 38.95, "ndvi": 0.163, "ndbi": 0.117, "risk": "Critical", "heat_zone": 3, "color": "#e74c3c", "city": "Mumbai"}}, {"type": "Feature", "geometry": {"type": "Point", "coordinates": [72.92796335938843, 19.00495019578193]}, "properties": {"lst": 29.47, "ndvi": -0.033, "ndbi": -0.338, "risk": "Low", "heat_zone": 0, "color": "#2ecc71", "city": "Mumbai"}}, {"type": "Feature", "geometry": {"type": "Point", "coordinates": [72.94388867975007, 18.93447013221176]}, "properties": {"lst": 34.6, "ndvi": 0.066, "ndbi": -0.029, "risk": "Critical", "heat_zone": 3, "color": "#e74c3c", "city": "Mumbai"}}, {"type": "Feature", "geometry": {"type": "Point", "coordinates": [72.87375391006326, 19.104560449522992]}, "properties": {"lst": 41.01, "ndvi": 0.287, "ndbi": 0.008, "risk": "Critical", "heat_zone": 3, "color": "#e74c3c", "city": "Mumbai"}}, {"type": "Feature", "geometry": {"type": "Point", "coordinates": [72.99743814442252, 19.01201376515708]}, "properties": {"lst": 29.89, "ndvi": -0.172, "ndbi": -0.312, "risk": "Low", "heat_zone": 0, "color": "#2ecc71", "city": "Mumbai"}}, {"type": "Feature", "geometry": {"type": "Point", "coordinates": [72.83184749797296, 19.10930303952551]}, "properties": {"lst": 34.4, "ndvi": 0.266, "ndbi": -0.096, "risk": "High", "heat_zone": 2, "color": "#e67e22", "city": "Mumbai"}}, {"type": "Feature", "geometry": {"type": "Point", "coordinates": [72.81166625023924, 18.900472248271758]}, "properties": {"lst": 33.67, "ndvi": 0.412, "ndbi": -0.146, "risk": "High", "heat_zone": 2, "color": "#e67e22", "city": "Mumbai"}}, {"type": "Feature", "geometry": {"type": "Point", "coordinates": [72.99122773851707, 18.89223458637875]}, "properties": {"lst": 39.35, "ndvi": 0.188, "ndbi": 0.087, "risk": "Critical", "heat_zone": 3, "color": "#e74c3c", "city": "Mumbai"}}, {"type": "Feature", "geometry": {"type": "Point", "coordinates": [73.02967298268665, 19.01557879762968]}, "properties": {"lst": 37.91, "ndvi": 0.25, "ndbi": 0.028, "risk": "Critical", "heat_zone": 3, "color": "#e74c3c", "city": "Mumbai"}}, {"type": "Feature", "geometry": {"type": "Point", "coordinates": [72.90576374144486, 19.143612020674663]}, "properties": {"lst": 29.03, "ndvi": -0.021, "ndbi": -0.308, "risk": "Low", "heat_zone": 0, "color": "#2ecc71", "city": "Mumbai"}}, {"type": "Feature", "geometry": {"type": "Point", "coordinates": [72.88703209044749, 19.075069614477847]}, "properties": {"lst": 41.7, "ndvi": 0.268, "ndbi": -0.023, "risk": "Critical", "heat_zone": 3, "color": "#e74c3c", "city": "Mumbai"}}, {"type": "Feature", "geometry": {"type": "Point", "coordinates": [73.04524493629874, 19.034809163664725]}, "properties": {"lst": 34.69, "ndvi": 0.405, "ndbi": -0.088, "risk": "High", "heat_zone": 2, "color": "#e67e22", "city": "Mumbai"}}, {"type": "Feature", "geometry": {"type": "Point", "coordinates": [73.0051451115207, 19.133109497370583]}, "properties": {"lst": 37.51, "ndvi": 0.348, "ndbi": -0.141, "risk": "High", "heat_zone": 2, "color": "#e67e22", "city": "Mumbai"}}, {"type": "Feature", "geometry": {"type": "Point", "coordinates": [72.9347248917694, 19.03439471853325]}, "properties": {"lst": 33.48, "ndvi": 0.42, "ndbi": -0.064, "risk": "High", "heat_zone": 2, "color": "#e67e22", "city": "Mumbai"}}, {"type": "Feature", "geometry": {"type": "Point", "coordinates": [72.93798201099203, 18.8966604212325]}, "properties": {"lst": 32.02, "ndvi": 0.576, "ndbi": -0.311, "risk": "Moderate", "heat_zone": 1, "color": "#f1c40f", "city": "Mumbai"}}, {"type": "Feature", "geometry": {"type": "Point", "coordinates": [73.01927910914216, 18.93420427368076]}, "properties": {"lst": 40.06, "ndvi": 0.19, "ndbi": 0.036, "risk": "Critical", "heat_zone": 3, "color": "#e74c3c", "city": "Mumbai"}}, {"type": "Feature", "geometry": {"type": "Point", "coordinates": [72.83881716290502, 18.95307520305949]}, "properties": {"lst": 41.17, "ndvi": 0.242, "ndbi": -0.065, "risk": "Critical", "heat_zone": 3, "color": "#e74c3c", "city": "Mumbai"}}, {"type": "Feature", "geometry": {"type": "Point", "coordinates": [72.793096466726, 18.93794313863401]}, "properties": {"lst": 28.58, "ndvi": -0.254, "ndbi": -0.272, "risk": "Low", "heat_zone": 0, "color": "#2ecc71", "city": "Mumbai"}}, {"type": "Feature", "geometry": {"type": "Point", "coordinates": [72.93381991936288, 19.059448951736066]}, "properties": {"lst": 37.72, "ndvi": 0.171, "ndbi": -0.21, "risk": "Critical", "heat_zone": 3, "color": "#e74c3c", "city": "Mumbai"}}, {"type": "Feature", "geometry": {"type": "Point", "coordinates": [72.99535949167635, 19.079468605603843]}, "properties": {"lst": 38.16, "ndvi": 0.285, "ndbi": -0.032, "risk": "Critical", "heat_zone": 3, "color": "#e74c3c", "city": "Mumbai"}}, {"type": "Feature", "geometry": {"type": "Point", "coordinates": [72.94587177604727, 18.95352357735229]}, "properties": {"lst": 32.74, "ndvi": 0.036, "ndbi": 0.006, "risk": "Critical", "heat_zone": 3, "color": "#e74c3c", "city": "Mumbai"}}, {"type": "Feature", "geometry": {"type": "Point", "coordinates": [73.00983200514247, 19.038312877481324]}, "properties": {"lst": 37.11, "ndvi": 0.336, "ndbi": -0.097, "risk": "High", "heat_zone": 2, "color": "#e67e22", "city": "Mumbai"}}, {"type": "Feature", "geometry": {"type": "Point", "coordinates": [72.95511831976528, 19.140628106478783]}, "properties": {"lst": 30.68, "ndvi": 0.693, "ndbi": -0.36, "risk": "Moderate", "heat_zone": 1, "color": "#f1c40f", "city": "Mumbai"}}, {"type": "Feature", "geometry": {"type": "Point", "coordinates": [72.84142220381568, 18.966129349021447]}, "properties": {"lst": 36.04, "ndvi": 0.445, "ndbi": -0.2, "risk": "High", "heat_zone": 2, "color": "#e67e22", "city": "Mumbai"}}, {"type": "Feature", "geometry": {"type": "Point", "coordinates": [72.86927425943604, 19.022187828509168]}, "properties": {"lst": 38.21, "ndvi": 0.323, "ndbi": -0.075, "risk": "High", "heat_zone": 2, "color": "#e67e22", "city": "Mumbai"}}, {"type": "Feature", "geometry": {"type": "Point", "coordinates": [72.84597786026352, 19.02728317372502]}, "properties": {"lst": 36.89, "ndvi": 0.229, "ndbi": -0.023, "risk": "Critical", "heat_zone": 3, "color": "#e74c3c", "city": "Mumbai"}}, {"type": "Feature", "geometry": {"type": "Point", "coordinates": [72.96601154470255, 19.100122286602517]}, "properties": {"lst": 28.52, "ndvi": -0.107, "ndbi": -0.323, "risk": "Low", "heat_zone": 0, "color": "#2ecc71", "city": "Mumbai"}}, {"type": "Feature", "geometry": {"type": "Point", "coordinates": [72.92152105245137, 19.13029698163725]}, "properties": {"lst": 33.0, "ndvi": 0.401, "ndbi": -0.089, "risk": "High", "heat_zone": 2, "color": "#e67e22", "city": "Mumbai"}}, {"type": "Feature", "geometry": {"type": "Point", "coordinates": [73.02478319087125, 19.082781077077016]}, "properties": {"lst": 40.48, "ndvi": 0.255, "ndbi": 0.068, "risk": "Critical", "heat_zone": 3, "color": "#e74c3c", "city": "Mumbai"}}, {"type": "Feature", "geometry": {"type": "Point", "coordinates": [73.02832271396905, 18.99673630984485]}, "properties": {"lst": 31.88, "ndvi": 0.384, "ndbi": -0.141, "risk": "High", "heat_zone": 2, "color": "#e67e22", "city": "Mumbai"}}, {"type": "Feature", "geometry": {"type": "Point", "coordinates": [72.90917946251722, 19.00443476386369]}, "properties": {"lst": 34.28, "ndvi": 0.334, "ndbi": -0.078, "risk": "High", "heat_zone": 2, "color": "#e67e22", "city": "Mumbai"}}, {"type": "Feature", "geometry": {"type": "Point", "coordinates": [72.92918811816818, 18.910230063222723]}, "properties": {"lst": 33.48, "ndvi": 0.152, "ndbi": -0.0, "risk": "Critical", "heat_zone": 3, "color": "#e74c3c", "city": "Mumbai"}}, {"type": "Feature", "geometry": {"type": "Point", "coordinates": [72.89230015838662, 19.00684710490189]}, "properties": {"lst": 36.21, "ndvi": 0.505, "ndbi": -0.145, "risk": "High", "heat_zone": 2, "color": "#e67e22", "city": "Mumbai"}}, {"type": "Feature", "geometry": {"type": "Point", "coordinates": [72.91416882304415, 19.076520333340817]}, "properties": {"lst": 39.2, "ndvi": 0.252, "ndbi": 0.022, "risk": "Critical", "heat_zone": 3, "color": "#e74c3c", "city": "Mumbai"}}, {"type": "Feature", "geometry": {"type": "Point", "coordinates": [72.94831852329357, 19.081677453188213]}, "properties": {"lst": 34.46, "ndvi": 0.478, "ndbi": -0.198, "risk": "High", "heat_zone": 2, "color": "#e67e22", "city": "Mumbai"}}, {"type": "Feature", "geometry": {"type": "Point", "coordinates": [72.82084410111261, 19.03640294637222]}, "properties": {"lst": 28.84, "ndvi": -0.229, "ndbi": -0.291, "risk": "Low", "heat_zone": 0, "color": "#2ecc71", "city": "Mumbai"}}, {"type": "Feature", "geometry": {"type": "Point", "coordinates": [72.8604591575136, 19.076475191714053]}, "properties": {"lst": 37.77, "ndvi": 0.433, "ndbi": -0.092, "risk": "High", "heat_zone": 2, "color": "#e67e22", "city": "Mumbai"}}, {"type": "Feature", "geometry": {"type": "Point", "coordinates": [72.86260313000022, 19.14048317147684]}, "properties": {"lst": 39.74, "ndvi": 0.242, "ndbi": 0.089, "risk": "Critical", "heat_zone": 3, "color": "#e74c3c", "city": "Mumbai"}}, {"type": "Feature", "geometry": {"type": "Point", "coordinates": [72.95430497246485, 19.11833260235649]}, "properties": {"lst": 33.19, "ndvi": 0.63, "ndbi": -0.291, "risk": "Moderate", "heat_zone": 1, "color": "#f1c40f", "city": "Mumbai"}}, {"type": "Feature", "geometry": {"type": "Point", "coordinates": [72.99772175605632, 18.894926420496176]}, "properties": {"lst": 40.47, "ndvi": 0.224, "ndbi": 0.107, "risk": "Critical", "heat_zone": 3, "color": "#e74c3c", "city": "Mumbai"}}, {"type": "Feature", "geometry": {"type": "Point", "coordinates": [72.85173720348118, 19.13519487727223]}, "properties": {"lst": 35.22, "ndvi": 0.465, "ndbi": -0.184, "risk": "High", "heat_zone": 2, "color": "#e67e22", "city": "Mumbai"}}, {"type": "Feature", "geometry": {"type": "Point", "coordinates": [72.84510060779594, 18.94944828707489]}, "properties": {"lst": 37.8, "ndvi": 0.283, "ndbi": -0.032, "risk": "Critical", "heat_zone": 3, "color": "#e74c3c", "city": "Mumbai"}}, {"type": "Feature", "geometry": {"type": "Point", "coordinates": [72.9800056320975, 18.955429045451243]}, "properties": {"lst": 32.65, "ndvi": 0.471, "ndbi": -0.258, "risk": "Moderate", "heat_zone": 1, "color": "#f1c40f", "city": "Mumbai"}}, {"type": "Feature", "geometry": {"type": "Point", "coordinates": [72.93025236282945, 18.905218021958223]}, "properties": {"lst": 39.35, "ndvi": 0.187, "ndbi": 0.065, "risk": "Critical", "heat_zone": 3, "color": "#e74c3c", "city": "Mumbai"}}, {"type": "Feature", "geometry": {"type": "Point", "coordinates": [72.85469814767174, 19.0598603897462]}, "properties": {"lst": 38.16, "ndvi": 0.208, "ndbi": -0.025, "risk": "Critical", "heat_zone": 3, "color": "#e74c3c", "city": "Mumbai"}}, {"type": "Feature", "geometry": {"type": "Point", "coordinates": [73.0353270305684, 19.107444136391184]}, "properties": {"lst": 36.6, "ndvi": 0.497, "ndbi": -0.114, "risk": "High", "heat_zone": 2, "color": "#e67e22", "city": "Mumbai"}}, {"type": "Feature", "geometry": {"type": "Point", "coordinates": [73.03899261588549, 19.031320132253832]}, "properties": {"lst": 34.6, "ndvi": 0.576, "ndbi": -0.166, "risk": "Moderate", "heat_zone": 1, "color": "#f1c40f", "city": "Mumbai"}}, {"type": "Feature", "geometry": {"type": "Point", "coordinates": [73.04591804666352, 19.015044288311017]}, "properties": {"lst": 28.97, "ndvi": -0.097, "ndbi": -0.299, "risk": "Low", "heat_zone": 0, "color": "#2ecc71", "city": "Mumbai"}}, {"type": "Feature", "geometry": {"type": "Point", "coordinates": [72.80906201245139, 18.941483084168308]}, "properties": {"lst": 28.55, "ndvi": -0.279, "ndbi": -0.088, "risk": "Low", "heat_zone": 0, "color": "#2ecc71", "city": "Mumbai"}}, {"type": "Feature", "geometry": {"type": "Point", "coordinates": [72.92872721785746, 18.89925719029846]}, "properties": {"lst": 42.13, "ndvi": 0.306, "ndbi": 0.04, "risk": "Critical", "heat_zone": 3, "color": "#e74c3c", "city": "Mumbai"}}, {"type": "Feature", "geometry": {"type": "Point", "coordinates": [73.02309051829715, 18.981564862547568]}, "properties": {"lst": 38.51, "ndvi": 0.168, "ndbi": -0.022, "risk": "Critical", "heat_zone": 3, "color": "#e74c3c", "city": "Mumbai"}}, {"type": "Feature", "geometry": {"type": "Point", "coordinates": [72.83854722394331, 19.112544223313787]}, "properties": {"lst": 35.44, "ndvi": 0.445, "ndbi": -0.222, "risk": "High", "heat_zone": 2, "color": "#e67e22", "city": "Mumbai"}}, {"type": "Feature", "geometry": {"type": "Point", "coordinates": [72.90024112038087, 19.05207301899796]}, "properties": {"lst": 36.89, "ndvi": 0.255, "ndbi": -0.049, "risk": "Critical", "heat_zone": 3, "color": "#e74c3c", "city": "Mumbai"}}, {"type": "Feature", "geometry": {"type": "Point", "coordinates": [73.00538768993975, 19.10695768315045]}, "properties": {"lst": 40.06, "ndvi": 0.223, "ndbi": 0.081, "risk": "Critical", "heat_zone": 3, "color": "#e74c3c", "city": "Mumbai"}}, {"type": "Feature", "geometry": {"type": "Point", "coordinates": [72.95234277374539, 19.059185207214725]}, "properties": {"lst": 33.23, "ndvi": 0.494, "ndbi": -0.233, "risk": "Moderate", "heat_zone": 1, "color": "#f1c40f", "city": "Mumbai"}}, {"type": "Feature", "geometry": {"type": "Point", "coordinates": [72.8118627343501, 18.945661440445317]}, "properties": {"lst": 28.52, "ndvi": -0.241, "ndbi": -0.252, "risk": "Low", "heat_zone": 0, "color": "#2ecc71", "city": "Mumbai"}}, {"type": "Feature", "geometry": {"type": "Point", "coordinates": [72.7971501613249, 19.148062435792824]}, "properties": {"lst": 35.09, "ndvi": 0.498, "ndbi": -0.195, "risk": "High", "heat_zone": 2, "color": "#e67e22", "city": "Mumbai"}}, {"type": "Feature", "geometry": {"type": "Point", "coordinates": [73.01882968699455, 18.908285669888187]}, "properties": {"lst": 40.59, "ndvi": 0.241, "ndbi": -0.034, "risk": "Critical", "heat_zone": 3, "color": "#e74c3c", "city": "Mumbai"}}, {"type": "Feature", "geometry": {"type": "Point", "coordinates": [72.98814202934489, 18.971158476828904]}, "properties": {"lst": 30.06, "ndvi": -0.108, "ndbi": -0.278, "risk": "Low", "heat_zone": 0, "color": "#2ecc71", "city": "Mumbai"}}, {"type": "Feature", "geometry": {"type": "Point", "coordinates": [72.98066276227806, 19.095001217841347]}, "properties": {"lst": 29.94, "ndvi": -0.014, "ndbi": -0.358, "risk": "Low", "heat_zone": 0, "color": "#2ecc71", "city": "Mumbai"}}, {"type": "Feature", "geometry": {"type": "Point", "coordinates": [72.83822756345006, 18.924062335618203]}, "properties": {"lst": 36.82, "ndvi": 0.06, "ndbi": 0.039, "risk": "Critical", "heat_zone": 3, "color": "#e74c3c", "city": "Mumbai"}}, {"type": "Feature", "geometry": {"type": "Point", "coordinates": [73.01481260933174, 19.133228857913185]}, "properties": {"lst": 39.91, "ndvi": 0.385, "ndbi": -0.079, "risk": "High", "heat_zone": 2, "color": "#e67e22", "city": "Mumbai"}}, {"type": "Feature", "geometry": {"type": "Point", "coordinates": [72.9911683722409, 18.93939569770168]}, "properties": {"lst": 33.34, "ndvi": 0.385, "ndbi": -0.153, "risk": "High", "heat_zone": 2, "color": "#e67e22", "city": "Mumbai"}}, {"type": "Feature", "geometry": {"type": "Point", "coordinates": [72.81800161268512, 19.12922310927825]}, "properties": {"lst": 35.73, "ndvi": 0.313, "ndbi": -0.12, "risk": "High", "heat_zone": 2, "color": "#e67e22", "city": "Mumbai"}}, {"type": "Feature", "geometry": {"type": "Point", "coordinates": [72.90931798180623, 18.881462741505526]}, "properties": {"lst": 28.85, "ndvi": -0.16, "ndbi": -0.201, "risk": "Low", "heat_zone": 0, "color": "#2ecc71", "city": "Mumbai"}}, {"type": "Feature", "geometry": {"type": "Point", "coordinates": [72.896945494797, 19.11991585305165]}, "properties": {"lst": 33.26, "ndvi": 0.501, "ndbi": -0.17, "risk": "Moderate", "heat_zone": 1, "color": "#f1c40f", "city": "Mumbai"}}, {"type": "Feature", "geometry": {"type": "Point", "coordinates": [72.88415064559071, 18.99992622939592]}, "properties": {"lst": 29.65, "ndvi": -0.095, "ndbi": -0.317, "risk": "Low", "heat_zone": 0, "color": "#2ecc71", "city": "Mumbai"}}, {"type": "Feature", "geometry": {"type": "Point", "coordinates": [72.95286174522734, 19.09859295733268]}, "properties": {"lst": 31.56, "ndvi": 0.614, "ndbi": -0.282, "risk": "Moderate", "heat_zone": 1, "color": "#f1c40f", "city": "Mumbai"}}, {"type": "Feature", "geometry": {"type": "Point", "coordinates": [72.88618841893988, 19.093393520509597]}, "properties": {"lst": 42.72, "ndvi": 0.206, "ndbi": 0.035, "risk": "Critical", "heat_zone": 3, "color": "#e74c3c", "city": "Mumbai"}}, {"type": "Feature", "geometry": {"type": "Point", "coordinates": [72.95808342456448, 18.95365143952924]}, "properties": {"lst": 44.76, "ndvi": 0.061, "ndbi": 0.008, "risk": "Critical", "heat_zone": 3, "color": "#e74c3c", "city": "Mumbai"}}, {"type": "Feature", "geometry": {"type": "Point", "coordinates": [72.9479531588062, 19.05576296381124]}, "properties": {"lst": 34.45, "ndvi": 0.482, "ndbi": -0.221, "risk": "Moderate", "heat_zone": 1, "color": "#f1c40f", "city": "Mumbai"}}, {"type": "Feature", "geometry": {"type": "Point", "coordinates": [73.00380299264806, 19.10558655905689]}, "properties": {"lst": 38.15, "ndvi": 0.375, "ndbi": -0.04, "risk": "High", "heat_zone": 2, "color": "#e67e22", "city": "Mumbai"}}, {"type": "Feature", "geometry": {"type": "Point", "coordinates": [72.94307918294022, 19.147140270753223]}, "properties": {"lst": 34.81, "ndvi": 0.676, "ndbi": -0.267, "risk": "Moderate", "heat_zone": 1, "color": "#f1c40f", "city": "Mumbai"}}, {"type": "Feature", "geometry": {"type": "Point", "coordinates": [72.90917868208787, 19.006596862018608]}, "properties": {"lst": 32.79, "ndvi": 0.443, "ndbi": -0.112, "risk": "High", "heat_zone": 2, "color": "#e67e22", "city": "Mumbai"}}, {"type": "Feature", "geometry": {"type": "Point", "coordinates": [72.86982499338546, 19.12366027637222]}, "properties": {"lst": 38.89, "ndvi": 0.194, "ndbi": -0.022, "risk": "Critical", "heat_zone": 3, "color": "#e74c3c", "city": "Mumbai"}}, {"type": "Feature", "geometry": {"type": "Point", "coordinates": [73.04471288409863, 18.93639548533421]}, "properties": {"lst": 40.76, "ndvi": 0.176, "ndbi": 0.019, "risk": "Critical", "heat_zone": 3, "color": "#e74c3c", "city": "Mumbai"}}, {"type": "Feature", "geometry": {"type": "Point", "coordinates": [72.95789241036462, 19.12225884814226]}, "properties": {"lst": 32.75, "ndvi": 0.488, "ndbi": -0.096, "risk": "High", "heat_zone": 2, "color": "#e67e22", "city": "Mumbai"}}, {"type": "Feature", "geometry": {"type": "Point", "coordinates": [72.87040158489779, 19.10636850545073]}, "properties": {"lst": 42.28, "ndvi": 0.189, "ndbi": 0.03, "risk": "Critical", "heat_zone": 3, "color": "#e74c3c", "city": "Mumbai"}}, {"type": "Feature", "geometry": {"type": "Point", "coordinates": [72.88034200019655, 19.07674352702732]}, "properties": {"lst": 41.13, "ndvi": 0.176, "ndbi": 0.065, "risk": "Critical", "heat_zone": 3, "color": "#e74c3c", "city": "Mumbai"}}, {"type": "Feature", "geometry": {"type": "Point", "coordinates": [72.78426535784679, 19.141361982497177]}, "properties": {"lst": 28.71, "ndvi": -0.275, "ndbi": -0.265, "risk": "Low", "heat_zone": 0, "color": "#2ecc71", "city": "Mumbai"}}, {"type": "Feature", "geometry": {"type": "Point", "coordinates": [73.04018985853273, 18.88289151027462]}, "properties": {"lst": 37.27, "ndvi": 0.215, "ndbi": 0.126, "risk": "Critical", "heat_zone": 3, "color": "#e74c3c", "city": "Mumbai"}}, {"type": "Feature", "geometry": {"type": "Point", "coordinates": [72.89965923968376, 19.117735020496717]}, "properties": {"lst": 35.52, "ndvi": 0.342, "ndbi": -0.104, "risk": "High", "heat_zone": 2, "color": "#e67e22", "city": "Mumbai"}}, {"type": "Feature", "geometry": {"type": "Point", "coordinates": [72.82216986807123, 18.9728667194706]}, "properties": {"lst": 35.57, "ndvi": 0.204, "ndbi": 0.014, "risk": "Critical", "heat_zone": 3, "color": "#e74c3c", "city": "Mumbai"}}, {"type": "Feature", "geometry": {"type": "Point", "coordinates": [72.96044532700613, 18.96726745713935]}, "properties": {"lst": 32.25, "ndvi": 0.532, "ndbi": -0.2, "risk": "Moderate", "heat_zone": 1, "color": "#f1c40f", "city": "Mumbai"}}, {"type": "Feature", "geometry": {"type": "Point", "coordinates": [72.99794312220553, 18.97000134318595]}, "properties": {"lst": 30.84, "ndvi": 0.638, "ndbi": -0.403, "risk": "Moderate", "heat_zone": 1, "color": "#f1c40f", "city": "Mumbai"}}, {"type": "Feature", "geometry": {"type": "Point", "coordinates": [72.83071187825381, 19.13120506632046]}, "properties": {"lst": 39.81, "ndvi": 0.242, "ndbi": -0.06, "risk": "Critical", "heat_zone": 3, "color": "#e74c3c", "city": "Mumbai"}}, {"type": "Feature", "geometry": {"type": "Point", "coordinates": [73.00526218562767, 19.007957034362374]}, "properties": {"lst": 33.49, "ndvi": 0.441, "ndbi": -0.202, "risk": "High", "heat_zone": 2, "color": "#e67e22", "city": "Mumbai"}}, {"type": "Feature", "geometry": {"type": "Point", "coordinates": [73.02692443191823, 18.886383425629383]}, "properties": {"lst": 39.68, "ndvi": 0.188, "ndbi": 0.107, "risk": "Critical", "heat_zone": 3, "color": "#e74c3c", "city": "Mumbai"}}, {"type": "Feature", "geometry": {"type": "Point", "coordinates": [72.92744138414534, 19.065053512560574]}, "properties": {"lst": 43.83, "ndvi": 0.157, "ndbi": 0.064, "risk": "Critical", "heat_zone": 3, "color": "#e74c3c", "city": "Mumbai"}}, {"type": "Feature", "geometry": {"type": "Point", "coordinates": [72.96720835047061, 19.075163803716823]}, "properties": {"lst": 28.57, "ndvi": -0.191, "ndbi": -0.31, "risk": "Low", "heat_zone": 0, "color": "#2ecc71", "city": "Mumbai"}}, {"type": "Feature", "geometry": {"type": "Point", "coordinates": [72.95019473792827, 18.900693573121345]}, "properties": {"lst": 40.84, "ndvi": 0.234, "ndbi": 0.071, "risk": "Critical", "heat_zone": 3, "color": "#e74c3c", "city": "Mumbai"}}, {"type": "Feature", "geometry": {"type": "Point", "coordinates": [72.92831102062856, 19.013874158336517]}, "properties": {"lst": 30.54, "ndvi": 0.615, "ndbi": -0.35, "risk": "Moderate", "heat_zone": 1, "color": "#f1c40f", "city": "Mumbai"}}, {"type": "Feature", "geometry": {"type": "Point", "coordinates": [72.96282152287334, 18.898288989420504]}, "properties": {"lst": 33.87, "ndvi": 0.173, "ndbi": -0.016, "risk": "Critical", "heat_zone": 3, "color": "#e74c3c", "city": "Mumbai"}}, {"type": "Feature", "geometry": {"type": "Point", "coordinates": [73.02251383661138, 19.05641264957697]}, "properties": {"lst": 39.1, "ndvi": 0.25, "ndbi": 0.059, "risk": "Critical", "heat_zone": 3, "color": "#e74c3c", "city": "Mumbai"}}, {"type": "Feature", "geometry": {"type": "Point", "coordinates": [72.86729017007346, 18.999027197617192]}, "properties": {"lst": 29.4, "ndvi": -0.172, "ndbi": -0.348, "risk": "Low", "heat_zone": 0, "color": "#2ecc71", "city": "Mumbai"}}, {"type": "Feature", "geometry": {"type": "Point", "coordinates": [73.04655796059699, 19.08959426142401]}, "properties": {"lst": 35.8, "ndvi": 0.64, "ndbi": -0.233, "risk": "Moderate", "heat_zone": 1, "color": "#f1c40f", "city": "Mumbai"}}, {"type": "Feature", "geometry": {"type": "Point", "coordinates": [72.965034057103, 19.051687570876428]}, "properties": {"lst": 28.79, "ndvi": -0.182, "ndbi": -0.361, "risk": "Low", "heat_zone": 0, "color": "#2ecc71", "city": "Mumbai"}}, {"type": "Feature", "geometry": {"type": "Point", "coordinates": [72.83979565302513, 19.079290698805643]}, "properties": {"lst": 36.85, "ndvi": 0.327, "ndbi": 0.001, "risk": "Critical", "heat_zone": 3, "color": "#e74c3c", "city": "Mumbai"}}, {"type": "Feature", "geometry": {"type": "Point", "coordinates": [72.93583893544596, 18.90224500425061]}, "properties": {"lst": 30.61, "ndvi": 0.609, "ndbi": -0.385, "risk": "Moderate", "heat_zone": 1, "color": "#f1c40f", "city": "Mumbai"}}, {"type": "Feature", "geometry": {"type": "Point", "coordinates": [72.7943302628602, 19.14662857276946]}, "properties": {"lst": 33.79, "ndvi": 0.435, "ndbi": -0.18, "risk": "High", "heat_zone": 2, "color": "#e67e22", "city": "Mumbai"}}, {"type": "Feature", "geometry": {"type": "Point", "coordinates": [73.01255243209246, 19.07471807407497]}, "properties": {"lst": 42.72, "ndvi": 0.19, "ndbi": 0.099, "risk": "Critical", "heat_zone": 3, "color": "#e74c3c", "city": "Mumbai"}}, {"type": "Feature", "geometry": {"type": "Point", "coordinates": [72.84657442032479, 19.11493228600047]}, "properties": {"lst": 38.83, "ndvi": 0.276, "ndbi": -0.064, "risk": "Critical", "heat_zone": 3, "color": "#e74c3c", "city": "Mumbai"}}, {"type": "Feature", "geometry": {"type": "Point", "coordinates": [72.94458259253717, 19.017285163941803]}, "properties": {"lst": 29.53, "ndvi": 0.049, "ndbi": -0.243, "risk": "Low", "heat_zone": 0, "color": "#2ecc71", "city": "Mumbai"}}, {"type": "Feature", "geometry": {"type": "Point", "coordinates": [72.84039977230933, 19.06250855269342]}, "properties": {"lst": 39.59, "ndvi": 0.306, "ndbi": -0.051, "risk": "Critical", "heat_zone": 3, "color": "#e74c3c", "city": "Mumbai"}}, {"type": "Feature", "geometry": {"type": "Point", "coordinates": [72.95976404874166, 18.920678485619256]}, "properties": {"lst": 33.07, "ndvi": 0.55, "ndbi": -0.289, "risk": "Moderate", "heat_zone": 1, "color": "#f1c40f", "city": "Mumbai"}}, {"type": "Feature", "geometry": {"type": "Point", "coordinates": [72.94195524661816, 19.124576783616924]}, "properties": {"lst": 36.91, "ndvi": 0.427, "ndbi": -0.146, "risk": "High", "heat_zone": 2, "color": "#e67e22", "city": "Mumbai"}}, {"type": "Feature", "geometry": {"type": "Point", "coordinates": [72.85197417050352, 19.101516379329045]}, "properties": {"lst": 36.14, "ndvi": 0.237, "ndbi": -0.034, "risk": "Critical", "heat_zone": 3, "color": "#e74c3c", "city": "Mumbai"}}, {"type": "Feature", "geometry": {"type": "Point", "coordinates": [72.98207759017708, 18.893184086143474]}, "properties": {"lst": 36.21, "ndvi": 0.299, "ndbi": 0.022, "risk": "Critical", "heat_zone": 3, "color": "#e74c3c", "city": "Mumbai"}}, {"type": "Feature", "geometry": {"type": "Point", "coordinates": [72.85876477732741, 19.05963198445847]}, "properties": {"lst": 34.7, "ndvi": 0.543, "ndbi": -0.308, "risk": "Moderate", "heat_zone": 1, "color": "#f1c40f", "city": "Mumbai"}}, {"type": "Feature", "geometry": {"type": "Point", "coordinates": [73.04269739317871, 19.023299918988783]}, "properties": {"lst": 38.1, "ndvi": 0.217, "ndbi": -0.069, "risk": "Critical", "heat_zone": 3, "color": "#e74c3c", "city": "Mumbai"}}, {"type": "Feature", "geometry": {"type": "Point", "coordinates": [72.9662037330784, 18.9352722546475]}, "properties": {"lst": 35.18, "ndvi": 0.452, "ndbi": -0.24, "risk": "High", "heat_zone": 2, "color": "#e67e22", "city": "Mumbai"}}, {"type": "Feature", "geometry": {"type": "Point", "coordinates": [72.93119821691394, 19.068003097848]}, "properties": {"lst": 41.14, "ndvi": 0.242, "ndbi": 0.043, "risk": "Critical", "heat_zone": 3, "color": "#e74c3c", "city": "Mumbai"}}, {"type": "Feature", "geometry": {"type": "Point", "coordinates": [72.94601715297125, 19.03607678260879]}, "properties": {"lst": 39.47, "ndvi": 0.213, "ndbi": -0.033, "risk": "Critical", "heat_zone": 3, "color": "#e74c3c", "city": "Mumbai"}}, {"type": "Feature", "geometry": {"type": "Point", "coordinates": [72.88903965332018, 19.10273861767781]}, "properties": {"lst": 42.58, "ndvi": 0.155, "ndbi": 0.03, "risk": "Critical", "heat_zone": 3, "color": "#e74c3c", "city": "Mumbai"}}, {"type": "Feature", "geometry": {"type": "Point", "coordinates": [73.04012848036253, 18.92865900177137]}, "properties": {"lst": 40.05, "ndvi": 0.131, "ndbi": 0.026, "risk": "Critical", "heat_zone": 3, "color": "#e74c3c", "city": "Mumbai"}}, {"type": "Feature", "geometry": {"type": "Point", "coordinates": [72.93262176689207, 19.03093934430261]}, "properties": {"lst": 33.55, "ndvi": 0.441, "ndbi": -0.06, "risk": "High", "heat_zone": 2, "color": "#e67e22", "city": "Mumbai"}}, {"type": "Feature", "geometry": {"type": "Point", "coordinates": [72.95570845765837, 18.89850897440591]}, "properties": {"lst": 37.73, "ndvi": 0.171, "ndbi": 0.093, "risk": "Critical", "heat_zone": 3, "color": "#e74c3c", "city": "Mumbai"}}, {"type": "Feature", "geometry": {"type": "Point", "coordinates": [72.99520328313639, 19.029667412984757]}, "properties": {"lst": 28.9, "ndvi": -0.253, "ndbi": -0.325, "risk": "Low", "heat_zone": 0, "color": "#2ecc71", "city": "Mumbai"}}, {"type": "Feature", "geometry": {"type": "Point", "coordinates": [72.95703174924208, 19.05204737441667]}, "properties": {"lst": 32.71, "ndvi": 0.352, "ndbi": -0.152, "risk": "High", "heat_zone": 2, "color": "#e67e22", "city": "Mumbai"}}, {"type": "Feature", "geometry": {"type": "Point", "coordinates": [73.00227376856749, 18.948497732493568]}, "properties": {"lst": 33.03, "ndvi": 0.475, "ndbi": -0.223, "risk": "Moderate", "heat_zone": 1, "color": "#f1c40f", "city": "Mumbai"}}, {"type": "Feature", "geometry": {"type": "Point", "coordinates": [73.04063387915106, 19.080494605153437]}, "properties": {"lst": 33.69, "ndvi": 0.278, "ndbi": -0.052, "risk": "High", "heat_zone": 2, "color": "#e67e22", "city": "Mumbai"}}, {"type": "Feature", "geometry": {"type": "Point", "coordinates": [73.03050050201334, 19.08168751550468]}, "properties": {"lst": 39.62, "ndvi": 0.154, "ndbi": -0.006, "risk": "Critical", "heat_zone": 3, "color": "#e74c3c", "city": "Mumbai"}}, {"type": "Feature", "geometry": {"type": "Point", "coordinates": [72.98812602618804, 19.085765199944625]}, "properties": {"lst": 31.78, "ndvi": 0.531, "ndbi": -0.245, "risk": "Moderate", "heat_zone": 1, "color": "#f1c40f", "city": "Mumbai"}}, {"type": "Feature", "geometry": {"type": "Point", "coordinates": [72.96710099653532, 19.114611800303035]}, "properties": {"lst": 28.34, "ndvi": -0.064, "ndbi": -0.364, "risk": "Low", "heat_zone": 0, "color": "#2ecc71", "city": "Mumbai"}}, {"type": "Feature", "geometry": {"type": "Point", "coordinates": [72.98478212315332, 19.14194842322026]}, "properties": {"lst": 38.37, "ndvi": 0.267, "ndbi": 0.077, "risk": "Critical", "heat_zone": 3, "color": "#e74c3c", "city": "Mumbai"}}, {"type": "Feature", "geometry": {"type": "Point", "coordinates": [73.00836402969618, 18.96828351227696]}, "properties": {"lst": 36.08, "ndvi": 0.113, "ndbi": -0.025, "risk": "Critical", "heat_zone": 3, "color": "#e74c3c", "city": "Mumbai"}}, {"type": "Feature", "geometry": {"type": "Point", "coordinates": [72.98936355821631, 18.91063108871759]}, "properties": {"lst": 40.52, "ndvi": 0.237, "ndbi": 0.002, "risk": "Critical", "heat_zone": 3, "color": "#e74c3c", "city": "Mumbai"}}, {"type": "Feature", "geometry": {"type": "Point", "coordinates": [73.02274089249693, 19.07979275203257]}, "properties": {"lst": 42.9, "ndvi": 0.177, "ndbi": 0.064, "risk": "Critical", "heat_zone": 3, "color": "#e74c3c", "city": "Mumbai"}}, {"type": "Feature", "geometry": {"type": "Point", "coordinates": [72.8049765099281, 18.943823933888908]}, "properties": {"lst": 28.57, "ndvi": -0.257, "ndbi": -0.234, "risk": "Low", "heat_zone": 0, "color": "#2ecc71", "city": "Mumbai"}}, {"type": "Feature", "geometry": {"type": "Point", "coordinates": [72.83194372344283, 19.09248116659458]}, "properties": {"lst": 34.13, "ndvi": 0.583, "ndbi": -0.285, "risk": "Moderate", "heat_zone": 1, "color": "#f1c40f", "city": "Mumbai"}}, {"type": "Feature", "geometry": {"type": "Point", "coordinates": [73.00577621881294, 18.95495507515959]}, "properties": {"lst": 34.43, "ndvi": 0.552, "ndbi": -0.304, "risk": "Moderate", "heat_zone": 1, "color": "#f1c40f", "city": "Mumbai"}}, {"type": "Feature", "geometry": {"type": "Point", "coordinates": [73.02569710404985, 18.99638490373115]}, "properties": {"lst": 29.92, "ndvi": -0.107, "ndbi": -0.321, "risk": "Low", "heat_zone": 0, "color": "#2ecc71", "city": "Mumbai"}}, {"type": "Feature", "geometry": {"type": "Point", "coordinates": [73.03014768619931, 19.045725392244574]}, "properties": {"lst": 37.95, "ndvi": 0.473, "ndbi": -0.116, "risk": "High", "heat_zone": 2, "color": "#e67e22", "city": "Mumbai"}}, {"type": "Feature", "geometry": {"type": "Point", "coordinates": [72.86301947888761, 19.05095431709163]}, "properties": {"lst": 39.69, "ndvi": 0.26, "ndbi": -0.021, "risk": "Critical", "heat_zone": 3, "color": "#e74c3c", "city": "Mumbai"}}, {"type": "Feature", "geometry": {"type": "Point", "coordinates": [72.90804901911474, 19.06594308566848]}, "properties": {"lst": 33.15, "ndvi": 0.563, "ndbi": -0.196, "risk": "Moderate", "heat_zone": 1, "color": "#f1c40f", "city": "Mumbai"}}, {"type": "Feature", "geometry": {"type": "Point", "coordinates": [73.00439409666237, 19.128916824357653]}, "properties": {"lst": 37.59, "ndvi": 0.522, "ndbi": -0.189, "risk": "High", "heat_zone": 2, "color": "#e67e22", "city": "Mumbai"}}, {"type": "Feature", "geometry": {"type": "Point", "coordinates": [72.82816729677819, 18.95385820705064]}, "properties": {"lst": 41.05, "ndvi": 0.135, "ndbi": 0.098, "risk": "Critical", "heat_zone": 3, "color": "#e74c3c", "city": "Mumbai"}}, {"type": "Feature", "geometry": {"type": "Point", "coordinates": [73.0236700012299, 19.01237058941811]}, "properties": {"lst": 35.78, "ndvi": 0.33, "ndbi": -0.123, "risk": "High", "heat_zone": 2, "color": "#e67e22", "city": "Mumbai"}}]}